,FIPS,County Name,City,State,Latitude,Longitude,Station Identifier,Channel Number,AM/FM,Twitter Handle,Alternate,FIPS_block
651,01015,Calhoun,Jacksonville,Alabama,33.8137125,-85.76135359999998,WLJS,91.9,FM,@WLJS_919,,010150021012089
412,01033,Colbert,Muscle Shoals,Alabama,34.7448112,-87.66752919999998,WQPR,88.7,FM,@Alpublicradio,,010330207042005
413,01047,Dallas,Selma,Alabama,32.4073589,-87.02110069999998,WAPR,88.3,FM,@Alpublicradio,,010479566003019
603,01055,Etowah,Gadsden,Alabama,34.014264000000004,-86.00663859999999,WSGN,91.5,FM,@WBHM903,,010550012001034
593,01069,Houston,Dothan,Alabama,31.223231300000002,-85.39048879999999,WRWA,88.7,FM,@troypublicradio,,010690406001032
602,01073,Jefferson,Birmingham,Alabama,33.5206608,-86.80248999999998,WBHM,90.3,FM,@WBHM,,010730027001097
639,01089,Madison,Huntsville,Alabama,34.730368799999994,-86.5861037,WJAB,90.9,FM,@WJAB-TV,,010890031001024
652,01089,Madison,Huntsville,Alabama,34.730368799999994,-86.5861037,WLRH,89.3,FM,@WLRH_893FMHD,,010890031001024
635,01097,Mobile,Mobile,Alabama,30.6953657,-88.0398912,WHIL,91.3,FM,@WHILFM,,010970012001266
694,01101,Montgomery,Montgomery,Alabama,32.366805199999995,-86.2999689,WVAS,90.7,FM,@WVAS,,011010015003009
594,01101,Montgomery,Montgomery/Troy,Alabama,32.3762523,-86.31088929999999,WTSU,89.9,FM,@troypublicradio,,011010001001109
414,01125,Tuscaloosa,Tuscaloosa,Alabama,33.2098407,-87.56917349999998,WUAL,91.5,FM,@Alpublicradio,,011250116001038
1,02016,Aleutians West,Unalaska,Alaska,53.8844382,-166.5332434,KUCB,89.7,FM,@KUCBNews,,020160002001050
514,02020,Anchorage,Anchorage,Alaska,61.2180556,-149.90027780000003,KSKA,91.1,FM,@kska,,020200011001015
0,02020,Anchorage,Anchorage,Alaska,61.2180556,-149.90027780000003,KNBA,90.3,FM,@KNBA,@aprn,020200011001015
535,02050,Bethel,Bethel,Alaska,60.792222200000005,-161.7558334,KYUK,640.0,AM,@kyuknews,,020500002004040
485,02070,Dillingham,Dillingham,Alaska,59.03972219999999,-158.4575,KDLG,670.0,AM,@kdlgradio,,020700002002002
520,02090,Fairbanks North Star,Fairbanks,Alaska,64.8377778,-147.7163888,KUAC,89.9,FM,@kuacfmtv,,020900001001047
490,02100,Haines,Haines,Alaska,59.235833299999996,-135.445,KHNS,102.3,FM,@KHNS_FM,,021000001002040
519,02110,Juneau,Juneau,Alaska,58.301944400000004,-134.4197221,KTOO,104.3,FM,@KTOOpubmedia,,021100005003046
582,02122,Kenai Peninsula,Kenai,Alaska,60.55444439999999,-151.2583333,KDLL,91.9,FM,@pickle_hill,,021220006001009
467,02122,Kenai Peninsula,Homer,Alaska,59.64250000000001,-151.5483333,KBBI,890.0,AM,@KBBINews,,021220010001038
506,02130,Ketchikan Gateway,Ketchikan,Alaska,55.34222219999999,-131.6461112,KRBD,105.9,FM,@KRBDRadio,,021300003002032
494,02150,Kodiak Island,Kodiak,Alaska,57.790000000000006,-152.40722209999998,KMXT,100.1,FM,@kmxtnews,,021500003001012
518,02170,Matanuska-Susitna,Talkeetna,Alaska,62.32090460000001,-150.10662209999998,KTNA,88.5,FM,@ktna,,021700001021022
534,02185,North Slope,Barrow,Alaska,71.29055559999998,-156.788611,KBRW,91.9,FM,@kyuknews,,021850001002036
533,02185,North Slope,Barrow,Alaska,71.29055559999998,-156.788611,KBRW,680.0,AM,@kyuknews,,021850001002036
489,02195,Petersburg,Petersburg,Alaska,56.8125,-132.9555556,KFSK,100.9,FM,@KFSK1,,021950002002015
585,02220,Sitka,Sitka,Alaska,57.0530556,-135.33,KCAW,104.7,FM,@ravenradio,,022200002004030
476,02261,Valdez-Cordova,McCarthy,Alaska,61.4333333,-142.9216667,KXKM,89.7,FM,@kchuradio,,022610001004027
477,02261,Valdez-Cordova,Valdez,Alaska,61.130833300000006,-146.3483334,KCHU,770.0,AM,@kchuradio,,022610003005004
516,02275,Wrangell,Wrangell,Alaska,56.470833299999995,-132.3766666,KSTK,101.7,FM,@kstkradio,,022750003004001
408,02290,Yukon-Koyukuk,McGrath,Alaska,62.953204299999996,-155.59599219999998,KSKO,870.0,AM,@89point5_KSKO,,022900004002202
419,04005,Coconino,Flagstaff,Arizona,35.1982836,-111.651302,KNAU,88.7,FM,@AZPubRadio,,040050012002072
420,04005,Coconino,Grand Canyon,Arizona,36.1069652,-112.11299720000001,KNAG,90.3,FM,@AZPubRadio,,040050020002547
418,04005,Coconino,Flagstaff,Arizona,35.1982836,-111.651302,KPUB,91.7,FM,@AZPubRadio,,040050012002072
492,04013,Maricopa,Phoenix,Arizona,33.4483771,-112.07403729999999,KJZZ,91.5,FM,@kjzzphoenix,,040131141001032
466,04013,Maricopa,Phoenix,Arizona,33.4483771,-112.07403729999999,KBAQ,89.5,FM,@kbaq,,040131141001032
422,04017,Navajo,Show Low,Arizona,34.254208399999996,-110.0298327,KNAA,90.7,FM,@AZPubRadio,,040179652001005
417,04019,Pima,Tucson,Arizona,32.2226066,-110.9747108,KUAZ,89.1,FM,@azpm,,040190001002011
416,04019,Pima,Tucson,Arizona,32.2226066,-110.9747108,KUAZ,1550.0,AM,@azpm,,040190001002011
421,04025,Yavapai,Prescott,Arizona,34.540024200000005,-112.46850249999999,KNAQ,89.3,FM,@AZPubRadio,,040250008012019
464,04027,Yuma,Yuma,Arizona,32.6926512,-114.62769159999999,KAWC,1320.0,AM,@kawc,,040270008001024
463,04027,Yuma,Yuma,Arizona,32.6926512,-114.62769159999999,KAWC,88.9,FM,@kawc,,040270008001024
462,05031,Craighead,Jonesboro,Arkansas,35.84229670000001,-90.704279,KASU,91.9,FM,@kasuradio,,050310001013002
522,05119,Pulaski,Little Rock,Arkansas,34.7464809,-92.2895948,KUAR,89.1,FM,@kuarpublicradio,,051190044002057
521,05143,Washington,Fayetteville,Arkansas,36.082156,-94.1718542,KUAF,91.3,FM,@kuaf,,051430107011006
579,06007,Butte,Chico,California,39.728494399999995,-121.8374777,KCHO,91.7,FM,@nsprnews,,060070010006017
530,06019,Fresno,Fresno,California,36.737798100000006,-119.78712469999999,KVPR,89.3,FM,@kvpr,,060190006004049
410,06023,Humboldt,Arcata,California,40.866516600000004,-124.0828396,KHSU,90.5,FM,@905khsu,,060230010003021
3,06025,Imperial,Calexico,California,32.6789476,-115.4988834,KQVO,97.7,FM,@kpbsnews,,060250121001006
529,06029,Kern,Bakersfield,California,35.3732921,-119.0187125,KPRX,89.1,FM,@kvpr,,060290016002095
6,06029,Kern,Mojave,California,35.0524699,-118.1739645,KCRY,88.1,FM,@kcrw,,060290059002066
429,06037,Los Angeles,Los Angeles,California,34.0522342,-118.24368490000002,KUSC,91.5,FM,@classicalkusc,,060372074001033
501,06037,Los Angeles,North Hollywood,California,34.187044,-118.3812562,KPFK,90.7,FM,@KPFK,,060371241031005
482,06037,Los Angeles,Santa Monica,California,34.01945429999999,-118.4911912,KCRW,89.9,FM,@kcrw,,060377017023015
499,06037,Los Angeles,Pasadena,California,34.1477849,-118.1445155,KPCC,89.3,FM,@kpcc,,060374619021009
500,06037,Los Angeles,Pasadena,California,34.1477849,-118.1445155,KPCC,89.3,FM,@kpcc,,060374619021009
481,06037,Los Angeles,Santa Monica,California,34.01945429999999,-118.4911912,KCRW,89.9,FM,@kcrw,,060377017023015
491,06037,Los Angeles,Long Beach,California,33.770050399999995,-118.1937395,KKJZ,88.1,FM,@kjazz881,,060375759021025
406,06037,Los Angeles,Northridge,California,34.2381251,-118.530123,KCSN,88.5,FM,@885fmsocal,,060371151031007
536,06045,Mendocino,Philo,California,39.065732399999995,-123.44500929999998,KZYX,90.7,FM,@kzyxmusic,,060450112002010
537,06045,Mendocino,Willits,California,39.4096079,-123.35556559999999,KZYZ,91.5,FM,@kzyzfm,,060450107003030
409,06053,Monterey,Pacific Grove,California,36.6177374,-121.9166215,KAZU,90.3,FM,@903kazu,,060530122002003
11,06053,Monterey,San Ardo,California,36.020520700000006,-120.90518259999999,KNBX,91.7,FM,@kcbxfm,,060530114001175
2,06055,Napa,Angwin,California,38.5757402,-122.44997959999999,KDFC,89.9,FM,@ClassicalKDFC,,060552017003000
426,06061,Placer,Tahoe City,California,39.1677134,-120.1451812,KKTO,90.5,FM,@capradionews,,060610222001033
8,06063,Plumas,Quincy,California,39.936836299999996,-120.9471764,KQNC,88.1,FM,@capradionews,,060630001001050
479,06065,Riverside,Indio,California,33.7205771,-116.2155619,KCRI,89.3,FM,@kcrw,,060650495001018
515,06065,Riverside,Palm Springs,California,33.8302961,-116.54529209999998,KPSC,88.5,FM,@kspc,,060659414001009
4,06065,Riverside,Coachella,California,33.6803003,-116.17389399999999,KVLA,90.3,FM,@kvlatv,,060650457071006
428,06067,Sacramento,Sacramento,California,38.5815719,-121.49439960000001,KXPR,90.9,FM,@capradionews,,060670011011011
427,06067,Sacramento,Sacramento,California,38.5815719,-121.49439960000001,KXJZ,88.9,FM,@capradionews,,060670011011011
10,06067,Sacramento,Sacramento,California,38.5815719,-121.49439960000001,KXPR,88.9,FM,@capradionews,,060670011011011
526,06071,San Bernardino,San Bernardino,California,34.1083449,-117.2897652,KVCR,91.9,FM,@kvcr_tvfm,,060710057011021
9,06071,San Bernardino,Redlands,California,34.055569299999995,-117.1825381,KUOR,89.1,FM,@scpr,,060710081001016
498,06073,San Diego,San Diego,California,32.715738,-117.1610838,KPBS,89.5,FM,@kpbsnews,,060730053003011
461,06075,San Francisco,San Francisco,California,37.7749295,-122.4194155,KALW,91.7,FM,@kalw,,060750201001001
505,06075,San Francisco,San Francisco,California,37.7749295,-122.4194155,KQED,88.5,FM,@kqed,,060750201001001
12,06075,San Francisco,San Francisco,California,37.7749295,-122.4194155,KUSF,90.3,FM,@kusforg,,060750201001001
425,06077,San Joaquin,Stockton,California,37.9577016,-121.29077959999998,KUOP,91.3,FM,@capradionews,,060770001002010
475,06079,San Luis Obispo,San Luis Obispo,California,35.2827524,-120.6596156,KCBX,90.1,FM,@kcbxfm,,060790111011019
7,06079,San Luis Obispo,Morro Bay,California,35.3659445,-120.8499924,KESC,99.7,FM,@classicalkusc,,060790106031052
483,06081,San Mateo,San Mateo,California,37.562991700000005,-122.32552539999999,KCSM,91.1,FM,@kcsmjazz91,,060816063003023
13,06083,Santa Barbara,Santa Barbara,California,34.4208305,-119.69819009999999,KDRW,88.7,FM,@kcrw,,060830009002030
15,06083,Santa Barbara,Santa Barbara,California,34.4208305,-119.69819009999999,KSBX,89.5,FM,@kcbxfm,,060830009002030
14,06083,Santa Barbara,Santa Barbara,California,34.4208305,-119.69819009999999,KCLU,1340.0,AM,@kclulive,,060830009002030
430,06083,Santa Barbara,Santa Barbara,California,34.4208305,-119.69819009999999,KFAC,88.7,FM,@Classicalkusc,,060830009002030
524,06087,Santa Cruz,Santa Cruz,California,36.9741171,-122.0307963,KUSP,88.9,FM,@kusp,,060871007002024
580,06089,Shasta,Redding,California,40.5865396,-122.3916754,KFPR,88.9,FM,@nsprnews,,060890101001059
5,06093,Siskiyou,McCloud,California,41.2557119,-122.1394487,KLDD,91.9,FM,@JPRnews,,060930012001686
507,06097,Sonoma,Santa Rosa,California,38.440428999999995,-122.7140548,KRCB,91.1,FM,@krcbtv22,,060971520001036
16,06101,Sutter,Sutter,California,39.1598915,-121.75274820000001,KXJS,88.7,FM,@capradionews,,061010508001171
480,06111,Ventura,Oxnard,California,34.1975048,-119.17705159999998,KCRU,89.1,FM,@kcrw,,061110091002012
478,06111,Ventura,Thousand Oaks,California,34.1705609,-118.83759369999999,KCLU,88.3,FM,@kclulive,,061110071002006
17,06111,Ventura,Thousand Oaks,California,34.1705609,-118.83759369999999,KDSC,91.1,FM,@classicalKUSC,,061110071002006
512,08003,Alamosa,Alamosa,Colorado,37.469449100000006,-105.87002140000001,KRZA,88.7,FM,@krzaradio,,080039602002028
432,08013,Boulder,Boulder,Colorado,40.0149856,-105.2705456,KCFC,1490.0,AM,@copublicradio,,080130122023023
528,08029,Delta,Paonia,Colorado,38.868320399999995,-107.5920017,KVNF,90.9,FM,@kvnfradio,,080299646002078
437,08029,Delta,Delta,Colorado,38.742206200000005,-108.0689582,KPRU,103.3,FM,@cprclassical,,080299651003021
438,08031,Denver,Denver,Colorado,39.739235799999996,-104.990251,KCFR,1340.0,AM,@cprclassical,,080310020001015
439,08031,Denver,Denver,Colorado,39.739235799999996,-104.990251,KVOD,90.1,FM,@cprclassical,,080310020001015
525,08031,Denver,Denver,Colorado,39.739235799999996,-104.990251,KUVO,89.3,FM,@kuvojazz,,080310020001015
21,08031,Denver,Denver,Colorado,39.739235799999996,-104.990251,KVOD,88.1,FM,@COPublicRadio,,080310020001015
20,08031,Denver,Denver,Colorado,39.739235799999996,-104.990251,KCFR,90.1,FM,@COPublicRadio,,080310020001015
436,08037,Eagle,Vail,Colorado,39.6402638,-106.37419550000001,KPRE,89.9,FM,@copublicradio,,080370007021034
508,08041,El Paso,Colorado Springs,Colorado,38.8338816,-104.82136340000001,KRCC,91.5,FM,@krcc,,080410023001039
486,08045,Garfield,Carbondale,Colorado,39.4022054,-107.2111628,KDNK,90.5,FM,@kdnkradio,,080459518032181
18,08045,Garfield,Carbondale,Colorado,39.4022054,-107.2111628,KCJX,88.9,FM,@aspenpubradio,,080459518032181
19,08045,Garfield,Carbondale,Colorado,39.4022054,-107.2111628,KDNK,88.1,FM,@kdnkradio,,080459518032181
474,08051,Gunnison,Crested Butte,Colorado,38.8697146,-106.98782309999999,KBUT,90.3,FM,@kbutradio,,080519638004036
517,08067,La Plata,Ignacio,Colorado,37.1150037,-107.633113,KSUT,91.3,FM,@ksut,,080679403002031
23,08067,La Plata,Ignacio,Colorado,37.1150037,-107.633113,KUTE,90.1,FM,@ksut,,080679403002031
22,08069,Larimer,Fort Collins,Colorado,40.5852602,-105.084423,KVXQ,88.3,FM,@COPublicRadio,,080690001002093
513,08083,Montezuma,Cortez,Colorado,37.348882700000004,-108.58592649999999,KSJD,91.5,FM,@ksjdradio,,080839693005068
433,08085,Montrose,Montrose,Colorado,38.478319799999994,-107.87617379999999,KPRH,88.3,FM,@copublicradio,,080859663002042
527,08085,Montrose,Montrose,Colorado,38.478319799999994,-107.87617379999999,KVMT,89.1,FM,@kvnfradio,,080859663002042
415,08097,Pitkin,Aspen,Colorado,39.19109829999999,-106.81753870000001,KAJX,91.5,FM,@aspenpubradio,,080970004012025
434,08101,Pueblo,Pueblo,Colorado,38.2544472,-104.60914090000001,KCFP,91.9,FM,@copublicradio,,081010014001046
435,08101,Pueblo,Pueblo,Colorado,38.2544472,-104.60914090000001,KKPC,1230.0,AM,@copublicradio,,081010014001046
24,08107,Routt,Steamboat Springs,Colorado,40.4849769,-106.83171580000001,KRNC,88.5,FM,@kunc,,081070005003039
497,08113,San Miguel,Telluride,Colorado,37.9374939,-107.81228519999999,KOTO,91.7,FM,@koto_radio,,081139681012072
523,08123,Weld,Greeley,Colorado,40.42331420000001,-104.7091322,KUNC,91.5,FM,@kunc,,081230005022026
663,09001,Fairfield,Stamford,Connecticut,41.0534302,-73.53873409999999,WEDW,88.5,FM,@wnpr,,090010201002000
676,09001,Fairfield,Westport,Connecticut,41.141471700000004,-73.35790490000001,WSHU,1260.0,AM,@wshupublicradio,,090010505004000
675,09001,Fairfield,Fairfield,Connecticut,41.1408363,-73.2612615,WSHU,91.1,FM,@wshupublicradio,,090010616001006
25,09001,Fairfield,Fairfield,Connecticut,41.1408363,-73.2612615,WVOF,88.5,FM,@wvof885,,090010616001006
28,09005,Litchfield,Sharon,Connecticut,41.879375399999994,-73.47686970000001,WQQQ,103.3,FM,@wqqq,,090052621002031
27,09007,Middlesex,Middletown,Connecticut,41.562320899999996,-72.6506488,WESU,88.1,FM,@WESUmiddletown,,090075416001028
26,09009,New Haven,Meriden,Connecticut,41.5381535,-72.80704349999998,WNPR,90.5,FM,@wnpr,,090091702003008
664,09009,New Haven,Meriden,Connecticut,41.5381535,-72.80704349999998,WPKT,90.5,FM,@wnpr,,090091702003008
665,09011,New London,Norwich,Connecticut,41.5242649,-72.07591049999998,WNPR,89.1,FM,@wnpr,,090116968001012
617,09015,Windham,Willimantic,Connecticut,41.710654299999995,-72.2081338,WECS,90.1,FM,@wecsfm,,090158006002013
29,10001,Kent,Dover,Delaware,39.158167999999996,-75.5243682,WDDE,91.1,FM,@wdde,,100010413001003
670,10001,Kent,Dover,Delaware,39.158167999999996,-75.5243682,WRTX,91.7,FM,@wrtimusic,,100010413001003
619,11001,District of Columbia,Washington,District of Columbia,38.9071923,-77.03687070000001,WETA,90.9,FM,@wetatvfm,,110010053013007
598,11001,District of Columbia,Washington,District of Columbia,38.9071923,-77.03687070000001,WAMU,88.5,FM,@wamu885,,110010053013007
684,12001,Alachua,Gainesville,Florida,29.6516344,-82.32482619999998,WUFT,89.1,FM,@wuftnews,,120010005001048
644,12005,Bay,Panama City,Florida,30.158812899999997,-85.6602058,WKGC,90.7,FM,@WKGCNews,,120050020001050
643,12005,Bay,Panama City,Florida,30.158812899999997,-85.6602058,WKGC,1480.0,AM,@WKGCNews,,120050020001050
626,12005,Bay,Panama City,Florida,30.158812899999997,-85.6602058,WFSW,89.1,FM,@wfsu,,120050020001050
622,12009,Brevard,Melbourne,Florida,28.0836269,-80.60810889999998,WFIT,89.5,FM,@wfit895fm,,120090648002009
683,12017,Citrus,Inverness,Florida,28.8354507,-82.3313955,WJUF,90.1,FM,@wuftmedia,,120174510002019
640,12031,Duval,Jacksonville,Florida,30.3321838,-81.65565099999998,WJCT,89.9,FM,@wjctjax,,120310010001023
693,12033,Escambia,Pensacola,Florida,30.42130899999999,-87.2169149,WUWF,88.1,FM,@wuwf,,120330006001145
692,12057,Hillsborough,Tampa,Florida,27.950575,-82.4571776,WUSF,89.7,FM,@wusf,,120570051011088
655,12057,Hillsborough,Tampa,Florida,27.950575,-82.4571776,WMNF,88.5,FM,@wmnf,,120570051011088
631,12071,Lee,Ft. Myers,Florida,26.640628000000003,-81.87230840000001,WGCU,90.1,FM,@wgcu,,120710007002003
628,12073,Leon,Tallahassee,Florida,30.4382559,-84.28073289999998,WFSU,88.9,FM,@wfsumedia,,120730002003067
627,12073,Leon,Tallahassee,Florida,30.4382559,-84.28073289999998,WFSQ,91.5,FM,@wfsumedia,,120730002003067
30,12086,Miami-Dade,Miami,Florida,25.7616798,-80.1917902,WDNA,88.9,FM,@wdnaradio,,120860067132003
653,12086,Miami-Dade,Miami,Florida,25.7616798,-80.1917902,WLRN,91.3,FM,@wlrn,,120860067132003
654,12095,Orange,Orlando,Florida,28.5383355,-81.3792365,WMFE,90.7,FM,@wmfeorlando,,120950189005085
681,12095,Orange,Orlando,Florida,28.5383355,-81.3792365,WUCF,89.9,FM,@wucftv,,120950189005085
699,12099,Palm Beach,West Palm Beach,Florida,26.7153424,-80.0533746,WXEL,90.7,FM,@wxeltv,,120990027001000
666,12111,St. Lucie,Ft. Pierce,Florida,27.446705600000005,-80.3256056,WQCS,88.9,FM,@wqcsnews,,121113801001098
31,12115,Sarasota,Sarasota,Florida,27.3364347,-82.53065269999998,WSMR,89.1,FM,@wusf,,121150001023002
33,13021,Bibb,Macon,Georgia,32.8406946,-83.6324022,WMUM,89.7,FM,@gpbmacon,,130210137001028
576,13021,Bibb,Macon,Georgia,32.8406946,-83.6324022,WDCO,89.7,FM,@mygpb,,130210137001028
442,13051,Chatham,Savannah,Georgia,32.0835407,-81.09983419999998,WSVH,91.1,FM,@gpbsavannah,,130510001001011
685,13059,Clarke,Athens,Georgia,33.9519347,-83.357567,WUGA,91.7,FM,@wugafm,,130590302002026
573,13061,Clay,Ft. Gaines,Georgia,31.609056899999995,-85.0471505,WJWV,90.9,FM,@mygpb,,130619603001132
569,13095,Dougherty,Albany,Georgia,31.578507399999996,-84.15574099999998,WUNV,91.7,FM,@mygpb,,130950114002012
34,13115,Floyd,Rome,Georgia,34.257038,-85.16467259999999,WGPB,97.7,FM,@gpbnews,@mygpb,131150006003058
596,13121,Fulton,Atlanta,Georgia,33.7489954,-84.3879824,WABE,90.1,FM,@wabenews,,131210035001026
460,13121,Fulton,Atlanta,Georgia,33.7489954,-84.3879824,WCLK,91.9,FM,@Jazz919WCLKatl,,131210035001026
668,13121,Fulton,Atlanta,Georgia,33.7489954,-84.3879824,WRFG,89.3,FM,@wrfgatlanta,,131210035001026
570,13127,Glynn,Brunswick,Georgia,31.149952799999998,-81.49148939999998,WWIO,89.1,FM,@mygpb,,131270009001008
572,13137,Habersham,Demorest,Georgia,34.565098,-83.5451724,WPPR,88.3,FM,@mygpb,,131370005003008
574,13185,Lowndes,Valdosta,Georgia,30.8327022,-83.2784851,WWET,91.7,FM,@mygpb,,131850110002045
571,13187,Lumpkin,Dahlonega,Georgia,34.5261465,-83.9843953,WNGU,89.5,FM,@mygpb,,131879602013004
440,13199,Meriwether,Warm Springs,Georgia,32.8904081,-84.6810381,WJSP,88.1,FM,@gpbnewmedia,,131999706001045
32,13213,Murray,Chatsworth,Georgia,34.7659145,-84.7699385,WNGH,98.9,FM,@gpbnews,@mygpb,132130104004006
595,13215,Muscogee,Columbus,Georgia,32.4609764,-84.9877094,WTJB,91.7,FM,@TROYUNews,,132150025001025
441,13245,Richmond,Augusta,Georgia,33.4734978,-82.0105148,WACG,90.7,FM,@gpbradioaugusta,,132450011001001
443,13277,Tift,Tifton,Georgia,31.450462899999994,-83.5084973,WABR,91.1,FM,@gpbsavannah,,132779606001046
575,13299,Ware,Waycross,Georgia,31.2135511,-82.3540178,WXVS,90.1,FM,@mygpb,,132999504001055
615,15003,Honolulu,Honolulu,Hawaii,21.3069444,-157.8583333,KHPR,88.1,FM,@wearehpr,,150030039001001
616,15003,Honolulu,Honolulu,Hawaii,21.3069444,-157.8583333,KIPO,89.3,FM,@wearehpr,,150030039001001
470,16001,Ada,Boise,Idaho,43.6187102,-116.2146068,KBSU,90.3,FM,@kbsu903,,160010001003070
472,16001,Ada,Boise,Idaho,43.6187102,-116.2146068,KBSX,91.5,FM,@kbsx915,,160010001003070
471,16001,Ada,Boise,Idaho,43.6187102,-116.2146068,KBSU,730.0,AM,@kbsu903,,160010001003070
588,16021,Boundary,Bonners Ferry,Idaho,48.69132570000001,-116.31630919999999,KIBX,92.1,FM,@sprlocalnews,,160219702002044
581,16057,Latah,Moscow,Idaho,46.73238749999999,-117.000165,KRFA,91.7,FM,@nwpbclassical,,160570051003020
424,16065,Madison,Rexburg,Idaho,43.8231096,-111.7924237,KBYI,100.5,FM,@byuidahoradio,,160659503012002
423,16083,Twin Falls,Twin Falls,Idaho,42.5558381,-114.4700518,KBSW,91.7,FM,@BSX915,,160830011003025
473,16085,Valley,McCall,Idaho,44.906183,-116.1171311,KBSM,91.7,FM,@KBSX915,,160859703001018
637,17019,Champaign,Urbana,Illinois,40.1105875,-88.2072697,WILL,580.0,AM,@willpublicmedia,,170190111001046
638,17019,Champaign,Urbana,Illinois,40.1105875,-88.2072697,WILL,90.9,FM,@willpublicmedia,,170190111001046
37,17019,Champaign,Urbana,Illinois,40.1105875,-88.2072697,WILL,90.9,AM,@willpublicmedia,,170190111001046
621,17019,Champaign,Champaign,Illinois,40.116420399999996,-88.2433829,WEFT,90.1,FM,@WFETradio,,170190110005031
601,17031,Cook,Chicago,Illinois,41.8781136,-87.62979820000001,WBEZ,91.5,FM,@wbez,,170318391001104
431,17037,DeKalb,DeKalb,Illinois,41.9294736,-88.75036469999998,WNIU,90.5,FM,@classicalwniu,,170370013005000
36,17043,DuPage,Glen Ellyn,Illinois,41.87752929999999,-88.0670118,WDCB,90.9,FM,@WDCBnews,,170438422001018
680,17077,Jackson,Carbondale,Illinois,37.7272727,-89.2167501,WSIU,91.9,FM,@wsiutv,,170770108002012
678,17081,Jefferson,Mt.Vernon,Illinois,38.317271399999996,-88.9031201,WVSI,88.9,FM,@wsiuradio,,170810510001042
35,17095,Knox,Galesburg,Illinois,40.94781580000001,-90.3712395,WVKC,90.7,FM,@TheWVKC,,170950008002008
591,17099,LaSalle,LaSalle,Illinois,41.362150299999996,-89.04182490000001,WNIW,91.5,FM,@tristatespr,,170999622004007
592,17109,McDonough,Macomb,Illinois,40.4592076,-90.6717971,WIUM,91.3,FM,@tristatespr,,171090104003021
632,17113,McLean,Normal,Illinois,40.514202600000004,-88.99063120000001,WGLT,89.1,FM,@wgltnews,,171130001024011
677,17119,Madison,Edwardsville,Illinois,38.8114364,-89.95315699999998,WSIE,88.7,FM,@wsie887thesound,,171194030011019
609,17143,Peoria,Peoria,Illinois,40.6936488,-89.58898640000001,WCBU,89.9,FM,@WCBURadio,,171430012001061
667,17149,Pike,Pittsfield,Illinois,39.607825399999996,-90.80512890000001,WIPA,89.3,FM,@wqub,,171499527005032
679,17159,Richland,Olney,Illinois,38.7308811,-88.08531540000001,WUSI,90.3,FM,@wsiuradio,,171599782001007
695,17161,Rock Island,Rock Island,Illinois,41.5094771,-90.57874759999999,WVIK,90.3,FM,@wvikfm,,171610226001013
578,17167,Sangamon,Springfield,Illinois,39.78172130000001,-89.6501481,WUIS,91.9,FM,@nprillinois,,171670018002033
659,17195,Whiteside,Sterling,Illinois,41.788641999999996,-89.69621939999998,WNIQ,91.5,FM,@wnijnews,,171950011005121
657,17201,Winnebago,Rockford,Illinois,42.2711311,-89.09399520000001,WNIJ,89.5,FM,@wnijnews,,172010029002005
658,17201,Winnebago,Rockford,Illinois,42.2711311,-89.09399520000001,WNIJ,89.5,FM,@wnijnews,,172010029002005
604,18003,Allen,Fort Wayne,Indiana,41.079273,-85.13935129999999,WBNI,89.1,FM,@WBNI941,,180030013002006
38,18003,Allen,Fort Wayne,Indiana,41.079273,-85.13935129999999,WBOI,89.1,FM,@WBOI,,180030013002006
449,18035,Delaware,Muncie,Indiana,40.1933767,-85.3863599,WBST,92.1,FM,@INPublicRadio,,180350028001026
411,18039,Elkhart,Goshen,Indiana,41.5822716,-85.83443829999999,WGCS,91.1,FM,@911TheGlobe,,180390001002051
696,18039,Elkhart,Elkhart,Indiana,41.6819935,-85.9766671,WVPE,88.1,FM,@wvpe,,180390027002020
448,18053,Grant,Marion,Indiana,40.5583739,-85.6591442,WBSW,90.9,FM,@INPublicRadio,,180530001002022
450,18075,Jay,Portland,Indiana,40.43448950000001,-84.9777455,WBSJ,91.7,FM,@INpublicradio,,180759630002050
40,18083,Knox,Vincennes,Indiana,38.677269,-87.5286325,WVUB,91.1,FM,@WVUB,,180839554003025
39,18089,Lake,Lowell,Indiana,41.291424299999996,-87.42059029999999,WLPR,89.1,FM,@WLPR891,,180890434031033
446,18095,Madison,Anderson,Indiana,40.1053196,-85.6802541,WBSB,89.5,FM,@INPublicRadio,,180950119002028
629,18097,Marion,Indianapolis,Indiana,39.768403,-86.158068,WFYI,90.1,FM,@wfyi,,180973910003057
623,18105,Monroe,Bloomington,Indiana,39.165325,-86.52638569999998,WFIU,103.7,FM,@wfiu,,181050002021008
605,18151,Steuben,Orland,Indiana,41.7306059,-85.17163760000003,WBOI,91.3,FM,@wboi,,181519710001089
599,18157,Tippecanoe,Lafayette,Indiana,40.4167022,-86.87528689999998,WBAA,920.0,AM,@wbaanews,@wbaaradio,181570012001014
600,18157,Tippecanoe,West Lafayette,Indiana,40.4258686,-86.90806549999998,WBAA,101.3,FM,@wbaaradio,@wbaanews,181570054002015
660,18163,Vanderburgh,Evansville,Indiana,37.9715592,-87.5710898,WNIN,88.3,FM,@WNIN,,181630018001080
447,18177,Wayne,Hagerstown,Indiana,39.9111576,-85.1616315,WBSH,91.1,FM,@INPublicRadio,,181770104002024
46,19013,Black Hawk,Waterloo,Iowa,42.492785999999995,-92.3425775,KBBG,88.1,FM,@kbbgradio,,190130003002010
453,19013,Black Hawk,Cedar Falls,Iowa,42.5348993,-92.4453161,KUNI,90.9,FM,@iowapublicradio,,190130022003006
456,19033,Cerro Gordo,Mason City,Iowa,43.15357279999999,-93.2010367,KRNI,1010.0,AM,@iowapublicradio,,190339504021017
41,19059,Dickinson,Okoboji,Iowa,43.3863521,-95.1483293,KOJI,90.7,FM,@kwitkoji,,190594511002028
455,19103,Johnson,Iowa City,Iowa,41.6611277,-91.5301683,KSUI,91.7,FM,@iowapublicradio,,191030021001022
454,19103,Johnson,Iowa City,Iowa,41.6611277,-91.5301683,WSUI,910.0,AM,@iowapublicradio,,191030021001022
459,19113,Linn,Cedar Rapids,Iowa,41.9778795,-91.66562320000001,KCCK,88.3,FM,@jazz883kcck,,191130019003065
44,19121,Madison,Patterson,Iowa,41.3483244,-93.8805023,KICP,105.9,FM,@iowapublicradio,,191210601004246
45,19125,Marion,Pleasantville,Iowa,41.3869578,-93.2682683,KICL,96.3,FM,@iowapublicradio,,191250301004029
452,19169,Story,Ames,Iowa,42.03078120000001,-93.6319131,WOI,90.1,FM,@iowapublicradio,,191690005002010
451,19169,Story,Ames,Iowa,42.03078120000001,-93.6319131,WOI,640.0,AM,@iowapublicradio,,191690005002010
43,19179,Wapello,Ottumwa,Iowa,41.01602930000001,-92.4083022,KICW,91.1,FM,@kicwtv,,191799605001046
42,19179,Wapello,Ottumwa,Iowa,41.01602930000001,-92.4083022,KNSZ,89.1,FM,@Ottumwa_Radio,,191799605001046
531,19193,Woodbury,Sioux City,Iowa,42.4999942,-96.4003069,KWIT,90.3,FM,@kwitkoji,,191930036001020
510,20037,Crawford,Pittsburg,Kansas,37.410884,-94.70496,KRPS,89.9,FM,@krps899,,200379575001081
504,20045,Douglas,Lawrence,Kansas,38.971668900000004,-95.23525009999999,KANU,91.5,FM,@kprnews,,200450002001008
48,20051,Ellis,Hays,Kansas,38.8791783,-99.3267702,KZAN,91.7,FM,@hppr,,200510729003006
444,20055,Finney,Garden City,Kansas,37.9716898,-100.8726618,KANZ,91.1,FM,@hppr,,200559603002021
445,20065,Graham,Hill City,Kansas,39.3647281,-99.84206490000001,KZNA,90.5,FM,@hppr,,200659522001091
503,20111,Lyon,Emporia,Kansas,38.403903,-96.1816626,KANH,89.7,FM,@kprnews,,201110005002014
47,20133,Neosho,Chanute,Kansas,37.6792135,-95.45720340000001,KANQ,90.3,FM,@kprnews,,201339519001056
49,20149,Pottawatomie,Olsburg,Kansas,39.4305527,-96.61556340000001,KANV,91.3,FM,@kprnews,,201490004003145
583,20155,Reno,Hutchinson,Kansas,38.0608445,-97.9297743,KHCC,90.1,FM,@radiokansas,,201550005006013
584,20169,Saline,Salina,Kansas,38.8402805,-97.6114237,KHCD,89.5,FM,@radiokansas,,201690001003031
493,20173,Sedgwick,Wichita,Kansas,37.68717609999999,-97.330053,KMUW,89.1,FM,@kmuw,,201730043002036
646,21035,Calloway,Murray,Kentucky,36.610333399999995,-88.31476099999998,WKMS,91.3,FM,@wkms,,210350105001006
661,21037,Campbell,Highland Heights,Kentucky,39.033116899999996,-84.45188540000001,WNKU,89.7,FM,@wnku,,210370533023024
686,21067,Fayette,Lexington,Kentucky,38.040583700000006,-84.50371640000002,WUKY,91.3,FM,@wuky,,210670008022000
648,21093,Hardin,Elizabethtown,Kentucky,37.7030646,-85.8649408,WKUE,90.9,FM,@wkupublicradio,,210930014023026
649,21101,Henderson,Henderson,Kentucky,37.83615379999999,-87.59001339999998,WKPB,89.5,FM,@wkupublicradio,,211010203001000
625,21111,Jefferson,Louisville,Kentucky,38.252664700000004,-85.7584557,WFPL,89.3,FM,@wfplnews,,211110049001075
624,21111,Jefferson,Louisville,Kentucky,38.252664700000004,-85.7584557,WFPK,91.9,FM,@wfpk,,211110049001075
50,21111,Jefferson,Louisville,Kentucky,38.252664700000004,-85.7584557,WUOL,90.5,FM,@wuol,,211110049001075
407,21151,Madison,Richmond,Kentucky,37.747857200000006,-84.29465390000001,WEKU,88.9,FM,@889weku,,211510104001011
650,21199,Pulaski,Somerset,Kentucky,37.0920222,-84.6041084,WDCL,89.7,FM,@wkupublicradio,,211999307002032
565,21205,Rowan,Morehead,Kentucky,38.1839705,-83.43268409999999,WMKY,90.3,FM,@mspr903fm,,212059503001031
671,21209,Scott,Georgetown,Kentucky,38.2097967,-84.55883109999998,WRVG,89.9,FM,@wrvg,,212090402061012
647,21227,Warren,Bowling Green,Kentucky,36.9685219,-86.48080429999999,WKYU,88.9,FM,@wkupublicradio,,212270110022083
587,22017,Caddo,Shreveport,Louisana,32.5251516,-93.75017890000001,KDAQ,89.9,FM,@rrrpublicradio,,220170205002074
57,22017,Caddo,Shreveport,Louisiana,32.5251516,-93.75017890000001,KDAQ,89.9,FM,@rrrpublicradio,,220170205002074
589,22033,East Baton Rouge,Baton Rouge,Louisana,30.451467699999995,-91.1871466,WBRH,90.3,FM,@talk1073,,220330051002043
52,22033,East Baton Rouge,Baton Rouge,Louisiana,30.451467699999995,-91.1871466,WRKF,89.3,FM,@wrkf,,220330051002043
669,22033,East Baton Rouge,Baton Rouge,Louisana,30.451467699999995,-91.1871466,WRKF,89.3,FM,@wrkf,,220330051002043
54,22055,Lafayette,Lafayette,Louisiana,30.2240897,-92.0198427,KRVS,88.7,FM,@krvsmedia,,220550001002075
511,22055,Lafayette,Lafayette,Louisana,30.2240897,-92.0198427,KRVS,88.7,FM,@krvsmedia,,220550001002075
698,22057,Lafourche,Thibodaux,Louisana,29.795763300000004,-90.822871,KTLN,90.5,FM,@wwno,,220570201001020
697,22071,Orleans,New Orleans,Louisana,29.95106579999999,-90.0715323,WWNO,89.9,FM,@wwno,,220710134003080
56,22071,Orleans,New Orleans,Louisiana,29.95106579999999,-90.0715323,WWNO,89.9,FM,@wwno,,220710134003080
55,22073,Ouachita,Monroe,Louisiana,32.5093109,-92.1193012,KEDM,90.3,FM,@kedmpublicradio,,220730108001041
487,22073,Ouachita,Monroe,Louisana,32.5093109,-92.1193012,KEDM,90.3,FM,@kedmpublicradio,,220730108001041
51,22079,Rapides,Alexandria,Louisiana,31.3112936,-92.4451371,KLSA,90.7,FM,@rrrpublicradio,,220790139002028
586,22079,Rapides,Alexandria,Louisana,31.3112936,-92.4451371,KLSA,90.7,FM,@rrrpublicradio,,220790139002028
53,22105,Tangipahoa,Hammond,Louisiana,30.5043583,-90.4611995,KSLU,90.9,FM,@kslutwitter,,221059542001061
547,23001,Androscoggin,Lewiston,Maine,44.100351,-70.21477639999999,WMEA,90.1,FM,@MPBNnews,,230010201001007
541,23003,Aroostook,Presque Isle,Maine,46.68115299999999,-68.01586139999999,WMEM,106.1,FM,@mainepublic,,230039520002000
542,23011,Kennebec,Waterville,Maine,44.5520105,-69.63171209999999,WMEW,91.3,FM,@mainepublic,,230110241022035
58,23013,Knox,Camden,Maine,44.209792799999995,-69.0647838,WMEP,90.5,FM,@mainepublic,,230139702002004
539,23019,Penobscot,Bangor,Maine,44.801612799999994,-68.7712257,WMEH,90.9,FM,@MainePublic,,230190002002017
540,23029,Washington,Calais,Maine,45.1889633,-67.27860380000001,WMED,89.7,FM,@MainePublic,,230299555001015
701,24001,Allegany,Frostburg,Maryland,39.6581424,-78.92835699999998,WFWM,91.9,FM,@xfsrfrostburg,,240010016001086
61,24005,Baltimore,Towson,Maryland,39.4014955,-76.6019125,WTMD,89.7,FM,@wtmd,,240054909002010
59,24021,Frederick,Frederick,Maryland,39.41426879999999,-77.41054090000002,WYPF,88.1,FM,@wypf881fm,,240217502002020
645,24029,Kent,Worton,Maryland,39.2745539,-76.09217009999998,WKHS,90.5,FM,@wkhsradio,,240299502004032
60,24043,Washington,Hagerstown,Maryland,39.641762899999996,-77.71999319999998,WGMS,89.1,FM,@wetatvfm,,240430007001000
673,24045,Wicomico,Salisbury,Maryland,38.360673600000005,-75.5993692,WSCL,89.5,FM,@wscl_wsdl,,240450004001023
672,24047,Worcester,Ocean City,Maryland,38.3365032,-75.0849058,WSDL,90.7,FM,@wscl_wsdl,,240479500001143
700,24510,Baltimore City,Baltimore,Maryland,39.2903848,-76.6121893,WYPR,88.1,FM,@wypr881FM,,245100401001035
62,25001,Barnstable,Brewster,Massachusetts,41.7600902,-70.0827905,WZAI,94.3,FM,@wcai_npr,,250010108003049
607,25001,Barnstable,W.Yarmouth,Massachusetts,41.6501114,-70.2411312,WBUR,1240.0,AM,@wbur,,250010121021016
674,25001,Barnstable,Sandwich,Massachusetts,41.7589615,-70.49393169999998,WSDH,91.5,FM,@WSDHradio,,250010133003071
608,25001,Barnstable,Woods Hole,Massachusetts,41.5264977,-70.6730857,WCAI,90.1,FM,@wcai_npr,,250010149001047
689,25001,Barnstable,Orleans,Massachusetts,41.7898354,-69.9897323,WFPB,1170.0,AM,@wumbradio,,250010104002000
688,25001,Barnstable,Falmouth,Massachusetts,41.5532208,-70.60858859999998,WFPB,91.9,FM,@wumbradio,,250010148003024
597,25003,Berkshire,Great Barrington,Massachusetts,42.195979799999996,-73.36200799999999,WAMQ,105.1,FM,@wamcradio,,250039251003023
244,25005,Bristol,South Coast of Massachusetts and Narragansett Bay communities,Rhode Island,41.7240907,-71.1437037,WXNI,89.3,FM,@ripr,,250056421001041
691,25009,Essex,Newburyport,Massachusetts,42.812591299999994,-70.87727509999998,WNAF,91.7,FM,@wumbradio,,250092683002018
65,25009,Essex,Newburyport,Massachusetts,42.812591299999994,-70.87727509999998,WNEF,91.7,FM,@wumbradio,,250092683002018
63,25011,Franklin,Deerfield,Massachusetts,42.5445588,-72.6056435,WNNZ,91.7,FM,@wfcr885,,250110409001057
67,25013,Hampden,Westfield,Massachusetts,42.1250929,-72.749538,WNNZ,640.0,AM,@wfcr885,,250138127023006
620,25015,Hampshire,Amherst,Massachusetts,42.3732216,-72.5198537,WFCR,88.5,FM,@wfcr885,,250158206001018
64,25017,Middlesex,Lowell,Massachusetts,42.633424700000006,-71.31617179999998,WCRB,99.5,FM,@995wcrb,,250173118001003
66,25017,Middlesex,Stow,Massachusetts,42.4370374,-71.5056199,WUMG,91.7,FM,@wumbradio,,250173231003017
630,25025,Suffolk,Boston,Massachusetts,42.360082500000004,-71.0588801,WGBH,89.7,FM,@wgbh,,250250303003021
606,25025,Suffolk,Boston,Massachusetts,42.360082500000004,-71.0588801,WBUR,90.9,FM,@WBUR,,250250303003021
687,25025,Suffolk,Boston,Massachusetts,42.360082500000004,-71.0588801,WUMB,91.9,FM,@wumbradio,,250250303003021
690,25027,Worcester,Worcester,Massachusetts,42.262593200000005,-71.8022934,WBPR,91.9,FM,@wumbradio,,250277317001059
636,25027,Worcester,Worcester,Massachusetts,42.262593200000005,-71.8022934,WICN,90.5,FM,@WICN905,,250277317001059
610,26007,Alpena,Alpena,Michigan,45.0616794,-83.43275279999999,WCML,91.7,FM,@wcmunews,,260070005003018
682,26017,Bay,Bay City,Michigan,43.5944677,-83.8888647,WUCX,90.1,FM,@wucx,,260172865001105
68,26021,Berrien,Berrien Springs,Michigan,41.9464342,-86.33890500000001,WAUS,90.7,FM,@wausfm,,260210214002051
70,26031,Cheboygan,Mackinaw City,Michigan,45.7774987,-84.72714649999998,WIAB,88.5,FM,@IPRNewsRadio,,260319601001016
613,26033,Chippewa,Sault Ste. Marie,Michigan,46.49771150000001,-84.3475876,WCMZ,98.3,FM,@wcmunews,@wcmutv,260339703004050
611,26047,Emmet,Harbor Springs,Michigan,45.43167589999999,-84.99199920000001,WCMW,103.9,FM,@wcmunews,,260479704003038
544,26049,Genesee,Flint,Michigan,43.012527399999996,-83.6874562,WFUM,91.1,FM,@michiganradio,,260490028002098
458,26055,Grand Traverse,Traverse City,Michigan,44.76305670000001,-85.62063169999998,WICA,91.5,FM,@iprnewsradio,,260555512001015
457,26055,Grand Traverse,Interlochen,Michigan,44.64537379999999,-85.7676077,WIAA,88.7,FM,@IPRNewsRadio,,260555504002048
69,26061,Houghton,Houghton,Michigan,47.12113309999999,-88.5694182,WGGL,91.1,FM,@mprnews,,260610008004018
538,26065,Ingham,Lansing,Michigan,42.732535,-84.55553470000001,WLNZ,89.7,FM,@LCCRadio,,260650067001013
641,26065,Ingham,East Lansing,Michigan,42.7369792,-84.48386540000001,WKAR,870.0,AM,@wkar,,260650041003006
642,26065,Ingham,East Lansing,Michigan,42.7369792,-84.48386540000001,WKAR,90.5,FM,@wkar,,260650041003006
612,26073,Isabella,Mt. Pleasant,Michigan,43.59780749999999,-84.76751390000001,WCMU,89.5,FM,@WCMUNews,@WCMUTV,260739403004025
656,26077,Kalamazoo,Kalamazoo,Michigan,42.291706899999994,-85.5872286,WMUK,102.1,FM,@wmuk1021,,260770002011043
634,26081,Kent,Kentwood,Michigan,42.8694731,-85.64474919999998,WGVU,1480.0,AM,@WGVUPublicMedia,,260810128003014
545,26081,Kent,Grand Rapids,Michigan,42.9633599,-85.6680863,WVGR,104.1,FM,@michiganradio,,260810020001057
71,26101,Manistee,Manistee,Michigan,44.2444473,-86.324253,WLMN,89.7,FM,@IPRNewsRadio,,261010008003055
662,26103,Marquette,Marquette,Michigan,46.547582500000004,-87.39559539999998,WNMU,90.1,FM,@WNMU,,261030001001002
633,26139,Ottawa,Allendale,Michigan,42.97219339999999,-85.95404070000001,WGVU,88.5,FM,@WGVUPublicMedia,,261390243002047
543,26161,Washtenaw,Ann Arbor,Michigan,42.2808256,-83.7430378,WUOM,91.7,FM,@MichiganRadio,,261614001001000
618,26161,Washtenaw,Ypsilanti,Michigan,42.2411499,-83.61299389999998,WEMU,89.1,FM,@wemu891,,261614103001001
614,26163,Wayne,Detroit,Michigan,42.331427000000005,-83.0457538,WDET,101.9,FM,@wdet,,261635172001069
74,27007,Beltrami,Bemidji,Minnesota,47.471573,-94.88268609999999,KCRB,88.5,FM,@mpr,,270074506005032
553,27007,Beltrami,Bemidji,Minnesota,47.471573,-94.88268609999999,KNBJ,91.3,FM,@mprnews,,270074506005032
86,27013,Blue Earth,Mankato,Minnesota,44.1635775,-93.9993996,KMSU,89.7,FM,@kmsutwitter,,270131707001036
95,27013,Blue Earth,Mankato,Minnesota,44.1635775,-93.9993996,KGAC,90.5,FM,@mpr,,270131707001036
558,27027,Clay,Moorhead,Minnesota,46.8737648,-96.7678039,KCCD,90.3,FM,@mprnews,,270270203001035
89,27027,Clay,Moorhead,Minnesota,46.8737648,-96.7678039,KCCM,91.1,FM,@mpr,,270270203001035
82,27031,Cook,Grand Marais,Minnesota,47.7504469,-90.33427270000001,WTIP,90.7,FM,@wtipradio,,270314802002055
81,27031,Cook,Grand Marais,Minnesota,47.7504469,-90.33427270000001,WMLS,88.7,FM,@classicalmpr,,270314802002055
83,27031,Cook,Grand Portage,Minnesota,47.9637433,-89.68487119999998,WGPO,90.1,FM,@wtipradio,,270314801002055
75,27035,Crow Wing,Brainerd,Minnesota,46.35267329999999,-94.2020084,KBPN,88.3,FM,@mpr,,270359511004030
94,27053,Hennepin,Minneapolis,Minnesota,44.977753,-93.2650108,KSJN,99.5,FM,@mpr,,270531261003028
88,27053,Hennepin,Minneapolis,Minnesota,44.977753,-93.2650108,KFAI,90.3,FM,@kfainews,,270531261003028
87,27053,Hennepin,Minneapolis,Minnesota,44.977753,-93.2650108,KBEM,88.5,FM,@kbemfm,,270531261003028
557,27055,Houston,La Crescent,Minnesota,43.82646949999999,-91.3035514,KXLC,91.1,FM,@mprnews,,270550201001071
465,27061,Itasca,Grand Rapids,Minnesota,47.2371658,-93.5302142,KAXE,91.7,FM,@KAXE,,270614809004056
85,27071,Koochiching,International Falls,Minnesota,48.602314899999996,-93.4040679,KITF,88.3,FM,@mpr,,270717902003069
73,27099,Mower,Austin,Minnesota,43.6666296,-92.9746367,KNSE,90.1,FM,@mpr,,270990004101025
561,27103,Nicollet,St. Peters,Minnesota,44.3258932,-93.955691,KNGA,91.5,FM,@mprnews,,271034804003043
562,27105,Nobles,Worthington,Minnesota,43.621098499999995,-95.5941436,KNSW,91.7,FM,@mprnews,,271051055003026
92,27109,Olmsted,Rochester,Minnesota,44.0121221,-92.4801989,KLSE,90.7,FM,@mpr,,271090004003020
559,27109,Olmsted,Rochester,Minnesota,44.0121221,-92.4801989,KMSE,88.7,FM,@mprnews,,271090004003020
93,27109,Olmsted,Rochester,Minnesota,44.0121221,-92.4801989,KZSE,91.7,FM,@mpr,,271090004003020
564,27109,Olmsted,Rochester,Minnesota,44.0121221,-92.4801989,KZSE,90.7,FM,@mprnews,,271090004003020
79,27111,Otter Tail,Fergus Falls,Minnesota,46.2835212,-96.0777887,KCMF,89.7,FM,@mpr,,271119609005015
80,27111,Otter Tail,Fergus Falls,Minnesota,46.2835212,-96.0777887,KNWF,91.5,FM,@mpr,,271119609005015
96,27113,Pennington,Thief River Falls,Minnesota,48.119135299999996,-96.1811473,KQMN,91.5,FM,@mpr,,271130904003010
590,27113,Pennington,Thief River Falls,Minnesota,48.119135299999996,-96.1811473,KNTN,102.7,FM,@TRFRADIO,,271130904003010
84,27115,Pine,Hinckley,Minnesota,46.015,-92.93888890000001,WGRH,88.5,FM,@mpr,,271159505002035
560,27123,Ramsey,St. Paul,Minnesota,44.953702899999996,-93.0899578,KNOW,91.1,FM,@mprnews,,271230342023006
90,27123,Ramsey,"St. Paul Minneapolis, Minnesota",Minnesota,44.953702899999996,-93.0899578,KCMP,89.3,FM,@kcmpnews,,271230342023006
91,27127,Redwood,Redwood Falls,Minnesota,44.539403899999996,-95.11694240000001,KRFI,88.1,FM,@mpr,,271277503002021
563,27131,Rice,Northfield,Minnesota,44.458298299999996,-93.161604,WCAL,89.3,FM,@mprnews,,271310706011003
78,27137,St. Louis,Duluth,Minnesota,46.78667189999999,-92.10048520000001,WSCD,92.9,FM,@mpr,,271370019001016
554,27137,St. Louis,Buhl,Minnesota,47.4935403,-92.7779599,WIRN,92.5,FM,@mprnews,,271370127002038
97,27137,St. Louis,Hibbing,Minnesota,47.42715459999999,-92.9376887,WIRR,90.9,FM,@mpr,,271370123003004
77,27137,St. Louis,Duluth,Minnesota,46.78667189999999,-92.10048520000001,KUMD,103.3,FM,@kumd1033fm,,271370019001016
556,27137,St. Louis,Duluth,Minnesota,46.78667189999999,-92.10048520000001,WSCN,100.5,FM,@mprnews,,271370019001016
76,27145,Stearns,St. Cloud,Minnesota,45.5579451,-94.1632404,KSJR,90.1,FM,@mpr,,271450116002034
555,27145,Stearns,Collegeville,Minnesota,45.59388149999999,-94.3641026,KNSR,88.9,FM,@mprnews,,271450102003052
72,27151,Swift,Appleton,Minnesota,45.1991667,-96.0244443,KRSU,91.3,FM,@rsuradio,,271519604001242
552,27151,Swift,Appleton,Minnesota,45.1991667,-96.0244443,KNCM,88.5,FM,@mprnews,,271519604001242
99,28037,Franklin,Bude,Mississippi,31.462949100000003,-90.85010140000001,WMAU,88.9,FM,@mpbonline,,280379501005082
548,28047,Harrison,Biloxi,Mississippi,30.396031800000003,-88.88530779999998,WMAH,90.3,FM,@mpbonline,,280470036002068
546,28049,Hinds,Jackson,Mississippi,32.298757300000005,-90.1848103,WMPN,91.3,FM,@MPBNews,@MPBOnline,280490027002080
101,28049,Hinds,Jackson,Mississippi,32.298757300000005,-90.1848103,WJSU,88.5,FM,@wjsu885,,280490027002080
549,28063,Jefferson,Lorman,Mississippi,31.8204396,-91.0501057,WPRL,91.7,FM,@mpbonline,,280639501003109
551,28071,Lafayette,Oxford,Mississippi,34.3664951,-89.51924840000001,WMAV,90.3,FM,@mpbonline,,280719502022001
550,28075,Lauderdale,Meridian,Mississippi,32.3643098,-88.70365600000001,WMAW,88.1,FM,@mpbonline,,280750107002051
100,28093,Marshall,Holly Springs,Mississippi,34.76759670000001,-89.44868939999998,WURC,88.1,FM,@wurc881,,280939504012008
102,28105,Oktibbeha,Mississippi State,Mississippi,33.4555279,-88.79038680000001,WMAB,89.9,FM,@mpbonline,,281059501003082
103,28105,Oktibbeha,Starkville,Mississippi,33.4503998,-88.81838719999998,WMSV,91.1,FM,@msuradio_wmsv,,281059506023009
98,28117,Prentiss,Booneville,Mississippi,34.658159600000005,-88.5667036,WMAE,89.5,FM,@mpbonline,,281179503002035
496,29019,Boone,Columbia,Missouri,38.95170529999999,-92.33407240000001,KOPN,89.5,FM,@kopnfm,,290190021003045
468,29019,Boone,Columbia,Missouri,38.95170529999999,-92.33407240000001,KBIA,91.3,FM,@kbia,,290190021003045
509,29031,Cape Girardeau,Cape Girardeau,Missouri,37.3058839,-89.51814759999998,KRCU,90.9,FM,@krcufm,,290318810001004
106,29077,Greene,Springfield,Missouri,37.20895720000001,-93.2922989,KSMU,91.1,FM,@ksmu,,290770001001023
110,29091,Howell,West Plains,Missouri,36.7281154,-91.85237109999998,KSMW,90.9,FM,@ksmu,,290910907005025
484,29095,Jackson,Kansas City,Missouri,39.0997265,-94.5785667,KCUR,89.3,FM,@kcur,,290950157001027
108,29101,Johnson,Warrensburg,Missouri,38.7627893,-93.7360498,KTBG,90.9,FM,@909thebridge,,291019606004049
105,29117,Livingston,Chillicothe,Missouri,39.7952946,-93.5524358,KRNW,88.9,FM,@kxcvkrnw,,291174805001028
532,29147,Nodaway,Maryville,Missouri,40.346101700000006,-94.87247059999999,KXCV,90.5,FM,@kxcvkrnw,,291474704002020
109,29161,Phelps,Rolla,Missouri,37.948544,-91.7715303,KMST,88.5,FM,@stlpublicradio,,291618908002042
104,29213,Taney,Branson,Missouri,36.6436731,-93.2185144,KSMS,90.5,FM,@ksmu,,292134802014040
107,29510,St. Louis City,St. Louis,Missouri,38.6270025,-90.1994042,KWMU,90.7,FM,@stlpublicradio,,295101255002011
567,30029,Flathead,Kalispell,Montana,48.1919889,-114.31681299999998,KUKL,89.9,FM,@mtpublicradio,,300290011002002
469,30031,Gallatin,Bozeman,Montana,45.676997899999996,-111.04293390000001,KBMC,102.1,FM,@kbmc,,300310008002034
111,30031,Gallatin,Bozeman,Montana,45.676997899999996,-111.04293390000001,KGLT,91.9,FM,@kgltfm,,300310008002034
495,30041,Hill,Havre,Montana,48.549999,-109.6840887,KNMC,90.1,FM,@KNMCradio,,300410403005016
566,30049,Lewis and Clark,Helena,Montana,46.589145200000004,-112.03910570000001,KUHM,91.7,FM,@mtpublicradio,,300490008004011
568,30063,Missoula,Missoula,Montana,46.8721284,-113.9940314,KUFM,89.1,FM,@mtpublicradio,,300630003002045
488,30111,Yellowstone,Billings,Montana,45.783285600000006,-108.50069040000001,KEMC,91.7,FM,@kemc,,301110004023024
577,31001,Adams,Hastings,Nebraska,40.5862583,-98.3898726,KHNE,89.1,FM,@NETNebraska,,310019657001031
112,31055,Douglas,Omaha,Nebraska,41.2565369,-95.93450340000001,KIOS,91.5,FM,@kiosomaha,,310550018003006
113,31109,Lancaster,Lincoln,Nebraska,40.813615999999996,-96.7025955,KZUM,89.3,FM,@kzumradio,,311090019001026
115,32003,Clark,Las Vegas,Nevada,36.169941200000004,-115.13982959999998,KUNV,91.5,FM,@kunvradio,,320030007003033
117,32003,Clark,Las Vegas,Nevada,36.169941200000004,-115.13982959999998,KNPR,89.5,FM,@knprnews,,320030007003033
118,32003,Clark,Las Vegas,Nevada,36.169941200000004,-115.13982959999998,KCNV,89.7,FM,@knprnews,,320030007003033
119,32003,Clark,Las Vegas,Nevada,36.169941200000004,-115.13982959999998,KNPR,88.9,FM,@knprnews,,320030007003033
114,32007,Elko,Elko,Nevada,40.8324211,-115.76312320000001,KNCC,91.5,FM,@renopublicradio,,320079510002000
116,32031,Washoe,Reno,Nevada,39.529632899999996,-119.8138027,KUNR,88.7,FM,@renopublicradio,,320310001023005
122,33003,Carroll,Jackson,New Hampshire,44.14626129999999,-71.18509959999999,WEVJ,99.5,FM,@nhpr,,330039551001149
121,33005,Cheshire,Keene,New Hampshire,42.933692,-72.27814090000001,WEVN,90.7,FM,@nhpr,,330059711003008
120,33013,Merrimack,Concord,New Hampshire,43.2081366,-71.5375718,WEVO,89.1,FM,@nhpr,,330130323001011
125,34013,Essex,Newark,New Jersey,40.735657,-74.1723667,WBGO,88.3,FM,@wbgo,,340130081001013
124,34025,Monmouth,Lincroft,New Jersey,40.3306656,-74.1209748,WBJB,90.5,FM,@wbjb,,340258015005011
126,34041,Warren,Hackettstown,New Jersey,40.85398789999999,-74.82905550000001,WNTI,91.9,FM,@centenary_nj,,340410314012028
129,35001,Bernalillo,Albuquerque,New Mexico,35.0843859,-106.65042199999999,KUNM,89.9,FM,@kunmnews,,350010021001049
128,35001,Bernalillo,Albuquerque,New Mexico,35.0843859,-106.65042199999999,KANW,89.1,FM,@kanwfm,,350010021001049
131,35013,Dona Ana,Las Cruces,New Mexico,32.3199396,-106.7636538,KRWG,90.7,FM,@krwg,,350130004023004
132,35025,Lea,Maljamar,New Mexico,32.856230100000005,-103.7627277,KMTH,98.7,FM,@KENWpublicmedia,,350250011005426
130,35031,McKinley,Gallup,New Mexico,35.5280783,-108.74258429999999,KGLP,91.7,FM,@KGLPradio,,350319454001005
133,35041,Roosevelt,Portales,New Mexico,34.1861922,-103.3343978,KENW,89.5,FM,@KENWpublicmedia,,350410001002066
134,35053,Socorro,Magdalena,New Mexico,34.1167305,-107.2439251,KABR,1500.0,AM,@kabrradio,,350539782002064
135,36001,Albany,Albany,New York,42.65257929999999,-73.7562317,WAMC,90.3,FM,@WAMCradio,,360010011001071
169,36003,Allegany,Houghton,New York,42.4233981,-78.1572319,WXXY,90.3,FM,@WXXIrochester,,360039503003071
136,36007,Broome,Binghamton,New York,42.09868669999999,-75.91797380000001,WSKG,89.3,FM,@WSKG,,360070014001002
137,36007,Broome,Binghamton,New York,42.09868669999999,-75.91797380000001,WSQX,91.5,FM,@WSKG,,360070014001002
147,36009,Cattaraugus,Olean,New York,42.083639,-78.42992699999998,WOLN,91.3,FM,@wbfo,,360099618001023
142,36013,Chautauqua,Jamestown,New York,42.0970023,-79.23532589999998,WUBJ,88.1,FM,@wbfo,,360130305002009
165,36013,Chautauqua,Fredonia,New York,42.4400576,-79.3317105,WCVF,91.3,FM,@fredoniaradio,,360130358003010
170,36013,Chautauqua,Jamestown,New York,42.0970023,-79.23532589999998,WNJA,89.7,FM,@wned,,360130305002009
171,36019,Clinton,Peru,New York,44.5731475,-73.54523089999998,WXLU,88.1,FM,@ncpr,,360191019004031
149,36019,Clinton,Plattsburgh,New York,44.699487299999994,-73.4529124,WCEL,91.9,FM,@WMACradio,,360191013002001
150,36027,Dutchess,Poughkeepsie,New York,41.7003713,-73.92097009999999,WRHV,88.7,FM,@wwfmclassical,,360272211001020
160,36029,Erie,Buffalo,New York,42.88644679999999,-78.8783689,WNED,89.3,FM,@wned,,360290165001054
164,36029,Erie,Buffalo,New York,42.88644679999999,-78.8783689,WNED,94.5,FM,@wned,@wnedtv,360290165001054
159,36029,Erie,Buffalo,New York,42.88644679999999,-78.8783689,WNED,970.0,AM,@wned,,360290165001054
139,36029,Erie,Buffalo,New York,42.88644679999999,-78.8783689,WBFO,88.7,FM,@wbfo,,360290165001054
174,36033,Franklin,Tupper Lake,New York,44.223948799999995,-74.4640575,WXLS,88.3,FM,@ncpr,,360339512001010
153,36033,Franklin,Saranac Lake,New York,44.329496,-74.1312662,WSLL,90.5,FM,@ncpr,,360339510001006
168,36053,Madison,Hamilton,New York,42.8270136,-75.5446238,WRCU,90.1,FM,@wrcucolgate,,360530309001004
151,36055,Monroe,Rochester,New York,43.15657789999999,-77.6088465,WXXI,1370.0,AM,@WXXInews,,360550094002007
172,36055,Monroe,Rochester,New York,43.15657789999999,-77.6088465,WRUR,88.5,FM,@wrurfm,,360550094002007
152,36055,Monroe,Rochester,New York,43.15657789999999,-77.6088465,WXXI,91.5,FM,@WXXInews,,360550094002007
138,36059,Nassau,Brookville,New York,40.8131553,-73.56734820000001,WCWP,88.1,FM,@wcwpsports,,360595177051022
146,36061,New York,New York City,New York,40.7127753,-74.0059728,WNYC,93.9,FM,@wnyc,,360610031001021
144,36061,New York,New York City,New York,40.7127753,-74.0059728,WFUV,90.7,FM,@wfuv,,360610031001021
145,36061,New York,New York City,New York,40.7127753,-74.0059728,WNYC,820.0,AM,@wnyc,,360610031001021
158,36065,Oneida,Utica,New York,43.100903,-75.232664,WUNY,89.5,FM,@wcny,,360650203002034
163,36065,Oneida,Boonville,New York,43.4836801,-75.33656069999998,WXLB,91.7,FM,@ncpr,,360650242002051
156,36067,Onondaga,Syracuse,New York,43.0481221,-76.14742439999998,WAER,88.3,FM,@waer883,,360670032002039
157,36067,Onondaga,Syracuse,New York,43.0481221,-76.14742439999998,WCNY,91.3,FM,@wcny,,360670032002039
161,36069,Ontario,Geneva,New York,42.8679836,-76.985557,WEOS,89.7,FM,@WEOSmorning,,360690518003013
166,36069,Ontario,Geneva,New York,42.8679836,-76.985557,WEOS,89.5,FM,@WEOSmorning,,360690518003013
148,36075,Oswego,Oswego,New York,43.4553461,-76.5104973,WRVO,89.9,FM,@WRVO,,360750216011021
140,36089,St. Lawrence,Canton,New York,44.595616299999996,-75.1690942,WSLU,89.5,FM,@ncpr,,360894920003004
167,36089,St. Lawrence,Gouverneur,New York,44.33672809999999,-75.46299300000001,WXLB,90.5,FM,@ncpr,,360894927006008
154,36093,Schenectady,Schenectady,New York,42.8142432,-73.93956870000001,WMHT,89.1,FM,@wmhtpubmedia,,360930210011006
155,36103,Suffolk,Selden,New York,40.866487299999996,-73.0356625,WSUF,89.9,FM,@wshunews,,361031581121017
162,36103,Suffolk,Southampton,New York,40.8598656,-72.5678041,WLIU,88.3,FM,@WLIU_BK,,361031904022069
173,36103,Suffolk,Southampton,New York,40.8598656,-72.5678041,WPPB,88.3,FM,@wppb,,361031904022069
143,36105,Sullivan,Jeffersonville,New York,41.7809217,-74.9337755,WJFF,90.5,FM,@wjffradio,,361059504003029
141,36109,Tompkins,Ithaca,New York,42.4439614,-76.5018807,WSQG,90.9,FM,@wskg,,361090008002005
175,37021,Buncombe,Asheville,North Carolina,35.5950581,-82.5514869,WCQS,88.1,FM,@news_bpr,,370210001001023
176,37031,Carteret,Atlantic Beach,North Carolina,34.6990505,-76.7402108,WBJD,91.5,FM,@publicradioeast,,370319711013029
183,37049,Craven,New Bern,North Carolina,35.108493,-77.04411429999998,WTEB,89.3,FM,@publicradioeast,,370499609001026
192,37049,Craven,New Bern,North Carolina,35.108493,-77.04411429999998,WZNB,88.5,FM,@publicradioeast,,370499609001026
181,37051,Cumberland,Fayetteville,North Carolina,35.0526641,-78.87835849999998,WFSS,91.9,FM,@wunc,,370510038002048
191,37055,Dare,Manteo,North Carolina,35.9082256,-75.67573019999998,WUND,88.9,FM,@wunc,,370559706014048
180,37063,Durham,Durham,North Carolina,35.99403289999999,-78.898619,WNCU,90.7,FM,@wncu,,370630022001080
188,37065,Edgecombe,Rocky Mount,North Carolina,35.938210299999994,-77.7905339,WRQM,90.0,FM,@wunc,,370650202002019
195,37065,Edgecombe,Rocky Mount,North Carolina,35.938210299999994,-77.7905339,WRQM,90.9,FM,@wunc,,370650202002019
196,37067,Forsyth,Winston-Salem,North Carolina,36.09985959999999,-80.24421600000001,WSNC,90.5,FM,@wsncradio,,370670001001023
186,37067,Forsyth,Winston-Salem,North Carolina,36.09985959999999,-80.24421600000001,WFDD,88.5,FM,@wfdd,,370670001001023
187,37107,Lenoir,Kingston,North Carolina,35.2626635,-77.5816353,WKNS,90.5,FM,@publicradioeast,,371070107002013
190,37107,Lenoir,Kinston,North Carolina,35.2626635,-77.5816353,WKNS,90.3,FM,@publicradioeast,,371070107002013
182,37113,Macon,Franklin,North Carolina,35.182317100000006,-83.3815429,WFQS,91.3,FM,@news_bpr,,371139703013024
179,37119,Mecklenburg,Davidson,North Carolina,35.4993031,-80.84868459999998,WDAV,89.9,FM,@wdav,,371190064031041
178,37119,Mecklenburg,Charlotte,North Carolina,35.2270869,-80.8431267,WFAE,90.7,FM,@wfae,,371190001005000
185,37129,New Hanover,Wilmington,North Carolina,34.2257255,-77.9447102,WHQR,91.3,FM,@whqr,,371290111001006
177,37135,Orange,Chapel Hill,North Carolina,35.913199600000006,-79.05584449999999,WUNC,91.5,FM,@wunc,,371350117001000
189,37139,Pasquotank,Elizabeth City,North Carolina,36.2946008,-76.2510461,WRVS,89.9,FM,@wrvs899,,371399604005049
184,37161,Rutherford,Spindale,North Carolina,35.36012120000001,-81.929271,WNCW,88.7,FM,@wncw,,371619606001086
194,37183,Wake,Raleigh,North Carolina,35.7795897,-78.6381787,WCPE,89.7,FM,@wcpe,,371830501001055
193,37183,Wake,Raleigh,North Carolina,35.7795897,-78.6381787,WSHA,88.9,FM,@889fmwsha,,371830501001055
198,38015,Burleigh,Bismarck,North Dakota,46.808326799999996,-100.7837392,KCND,90.5,FM,@prairiepublic,,380150101003018
200,38017,Cass,Fargo,North Dakota,46.8771863,-96.78980340000001,KDSU,91.9,FM,@prairiepublic,,380170007001029
201,38035,Grand Forks,Grand Forks,North Dakota,47.9252568,-97.0328547,KUND,89.3,FM,@prairiepublic,,380350101002025
197,38079,Rolette,Belcourt,North Dakota,48.8391712,-99.7448689,KEYA,88.5,FM,@KEYApublicradio,,380799418005018
199,38089,Stark,Dickinson,North Dakota,46.879175599999996,-102.7896242,KDPR,89.9,FM,@KDPRknows,,380899637001054
202,38093,Stutsman,Jamestown,North Dakota,46.9105438,-98.70843570000001,KPRJ,91.5,FM,@prairiepublic,,380939674005084
203,38105,Williams,Williston,North Dakota,48.1469683,-103.6179745,KPPR,89.5,FM,@prairiepublic,,381059541003145
205,39009,Athens,Athens,Ohio,39.3292396,-82.1012554,WOUB,91.3,FM,@woub,,390099731011012
204,39009,Athens,Athens,Ohio,39.3292396,-82.1012554,WOUB,1340.0,AM,@woub,,390099731011012
209,39017,Butler,Oxford,Ohio,39.506997399999996,-84.74523099999998,WMUB,88.5,FM,@917wvxu,,390170101012010
372,39035,Cuyahoga,Cleveland,Ohio,41.499320000000004,-81.6943605,WCPN,90.3,FM,@WCPN,,390351077011020
214,39049,Franklin,Columbus,Ohio,39.9611755,-82.99879419999998,WOSU,89.7,FM,@wosu,,390490040001005
387,39049,Franklin,Columbus,Ohio,39.9611755,-82.99879419999998,WOSU,820.0,AM,@WOSU,,390490040001005
371,39049,Franklin,Columbus,Ohio,39.9611755,-82.99879419999998,WCBE,90.5,FM,@WCBE905Columbus,,390490040001005
213,39055,Geauga,Thompson,Ohio,41.6702348,-81.05338540000001,WSKV,89.1,FM,@wskv,,390553101002010
403,39057,Greene,Yellow Springs,Ohio,39.8064486,-83.88687399999998,WYSO,91.3,FM,@WYSO,,390572550003012
388,39059,Guernsey,Cambridge,Ohio,40.031183,-81.5884561,WOUC,89.1,FM,@wouc,,390599775002039
331,39061,Hamilton,Cincinnati,Ohio,39.103118200000004,-84.5120196,WVXU,91.7,FM,@917wvxu,,390610007003046
329,39061,Hamilton,Cincinnati,Ohio,39.103118200000004,-84.5120196,WGUC,90.9,FM,@909WGUC,,390610007003046
207,39087,Lawrence,Ironton,Ohio,38.5367471,-82.6829406,WOUL,89.1,FM,@woub,,390870503001035
210,39095,Lucas,Toledo,Ohio,41.6528052,-83.53786740000001,WGTE,91.3,FM,@wtgepublic,,390950028001061
404,39099,Mahoning,Youngstown,Ohio,41.0997803,-80.6495194,WYSU,88.5,FM,@WYSU,,390998137004051
206,39113,Montgomery,Dayton,Ohio,39.758947799999994,-84.1916069,WDPR,88.1,FM,@discoverdpr,,391130015011051
212,39117,Morrow,Mt. Gilead,Ohio,40.5492265,-82.82740140000001,WVXG,95.1,FM,@951rocks,,391179652005030
381,39133,Portage,Kent,Ohio,41.1536674,-81.3578859,WKSU,89.7,FM,@WKSU,,391336015012016
208,39139,Richland,Mansfield,Ohio,40.758390000000006,-82.51544709999999,WOSV,91.7,FM,@wosu,,391390031001140
211,39169,Wayne,Wooster,Ohio,40.8050565,-81.93514300000001,WKRW,89.3,FM,@wksu,,391690001001015
344,40027,Cleveland,Norman,Oklahoma,35.222566799999996,-97.4394777,KGOU,106.3,FM,@kgounews,,400272001001018
337,40031,Comanche,Lawton,Oklahoma,34.6035669,-98.3959291,KCCU,89.3,FM,@KCCURadio,,400310025002118
216,40035,Craig,Ketchum,Oklahoma,36.5245267,-95.02385129999999,KOSN,107.5,FM,@kosuradio,,400353735002139
215,40065,Jackson,Altus,Oklahoma,34.637765,-99.33404420000001,KOCU,90.1,FM,@kucofm,,400659687002033
348,40119,Payne,Stillwater,Oklahoma,36.1156071,-97.0583681,KOSU,91.7,FM,@KOSURadio,,401190107001007
217,40143,Tulsa,Tulsa,Oklahoma,36.1539816,-95.992775,KWTU,88.7,FM,@kwgsnews,,401430025002111
358,40143,Tulsa,Tulsa,Oklahoma,36.1539816,-95.992775,KWGS,89.5,FM,@KWGSNEWS,,401430025002111
218,40153,Woodward,Woodward,Oklahoma,36.433648100000006,-99.39038620000001,KWOU,88.1,FM,@kwouonline,,401539533003059
227,41003,Benton,Corvallis,Oregon,44.5645659,-123.2620435,KOAC,550.0,AM,@opb,,410030106001034
224,41007,Clatsop,Astoria,Oregon,46.1878841,-123.8312534,KMUN,91.9,FM,@coastradio,,410079502002008
237,41007,Clatsop,Warrenton,Oregon,46.1651049,-123.9237557,KCPB,90.9,FM,@coastradio,,410079505002078
226,41011,Coos,Coos Bay,Oregon,43.3665007,-124.2178903,KSBA,88.5,FM,@ksbanews,,410110007004012
225,41017,Deschutes,Bend,Oregon,44.058172799999994,-121.31530959999999,KOAB,91.3,FM,@opb,,410170015004003
235,41019,Douglas,Roseburg,Oregon,43.216505,-123.3417381,KTBR,950.0,AM,@jprnews,,410191200005021
219,41029,Jackson,Ashland,Oregon,42.194575799999996,-122.7094767,KAGI,930.0,AM,@jprnews,,410290020002029
220,41029,Jackson,Ashland,Oregon,42.194575799999996,-122.7094767,KSJK,1230.0,AM,@jprnews,,410290020002029
221,41029,Jackson,Ashland,Oregon,42.194575799999996,-122.7094767,KSMF,89.1,FM,@jprnews,,410290020002029
222,41029,Jackson,Ashland,Oregon,42.194575799999996,-122.7094767,KSRG,88.3,FM,@jprnews,,410290020002029
223,41029,Jackson,Ashland,Oregon,42.194575799999996,-122.7094767,KSOR,90.1,FM,@jprnews,,410290020002029
234,41035,Klamath,Klamath Falls,Oregon,42.224866999999996,-121.78167040000001,KLMF,88.5,FM,@jprnews,,410359718003023
230,41035,Klamath,Klamath Falls,Oregon,42.224866999999996,-121.78167040000001,KSKF,90.9,FM,@jprnews,,410359718003023
228,41039,Lane,Eugene,Oregon,44.0520691,-123.08675359999998,KRVM,1280.0,AM,@91krvm,,410390039001000
233,41039,Lane,Eugene,Oregon,44.0520691,-123.08675359999998,KOPB,1600.0,AM,@opb,,410390039001000
345,41039,Lane,Eugene,Oregon,44.0520691,-123.08675359999998,KLCC,89.7,FM,@KLCCEugeneOR,,410390039001000
229,41039,Lane,Florence,Oregon,43.9826214,-124.099841,KLFO,88.1,FM,@klcceugeneor,,410390007072035
231,41041,Lincoln,Newport,Oregon,44.6367836,-124.05345049999998,KLCO,90.5,FM,@klcceugeneor,,410419510002033
346,41051,Multnomah,Gresham,Oregon,45.5059203,-122.44861189999999,KMHD,89.1,FM,@KMHD_JAZZ_Radio,,410510100022018
232,41051,Multnomah,Portland,Oregon,45.523062200000005,-122.6764815,KOPB,91.5,FM,@opb,,410510051002063
236,41057,Tillamook,Tillamook,Oregon,45.4562158,-123.8440137,KTCB,89.5,FM,@coastradio,,410579605002000
393,42003,Allegheny,Pittsburgh,Pennsylvania,40.44062479999999,-79.9958864,WQED,89.3,FM,@WQEDFM,,420030201005022
402,42003,Allegheny,Pittsburgh,Pennsylvania,40.44062479999999,-79.9958864,WYEP,91.3,FM,@WYEP,,420030201005022
328,42003,Allegheny,Pittsburgh,Pennsylvania,40.44062479999999,-79.9958864,WDUQ,90.5,FM,@905wesa,,420030201005022
240,42003,Allegheny,Pittsburgh,Pennsylvania,40.44062479999999,-79.9958864,WESA,90.5,FM,@905wesa,,420030201005022
392,42021,Cambria,Johnstown,Pennsylvania,40.32674069999999,-78.9219698,WQEJ,89.7,FM,@wqed,,420210001002047
391,42027,Centre,State College,Pennsylvania,40.793394899999996,-77.8600012,WPSU,91.5,FM,@WPSU,,420270125002007
379,42043,Dauphin,Harrisburg,Pennsylvania,40.273191100000005,-76.88670079999999,WITF,89.5,FM,@WITF,,420430206001066
239,42043,Dauphin,Middletown,Pennsylvania,40.199814,-76.7310806,WXPH,88.7,FM,@wxpnfm,,420430238002000
394,42049,Erie,Erie,Pennsylvania,42.12922409999999,-80.085059,WQLN,91.3,FM,@WQLN,,420490001002002
400,42069,Lackawanna,Scranton,Pennsylvania,41.408969,-75.66241219999998,WVIA,89.9,FM,@WVIATVFM,,420691002002046
374,42077,Lehigh,Allentown,Pennsylvania,40.6022939,-75.4714098,WDIY,88.1,FM,@WDIYFM,,420770097001022
241,42081,Lycoming,Williamsport,Pennsylvania,41.24118970000001,-77.00107860000001,WVYA,89.7,FM,@wviatvfm,,420810006003036
238,42083,McKean,Kane,Pennsylvania,41.662839399999996,-78.81114269999998,WPSX,90.1,FM,@wpsu,,420834211002032
395,42101,Philadelphia,Philadelphia,Pennsylvania,39.9525839,-75.1652215,WRTI,90.1,FM,@WRTImusic,,421010005001010
401,42101,Philadelphia,Philadelphia,Pennsylvania,39.9525839,-75.1652215,WXPN,88.5,FM,@wxpnfm,,421010005001010
378,42101,Philadelphia,Philadelphia,Pennsylvania,39.9525839,-75.1652215,WHYY,90.9,FM,@whyy,,421010005001010
245,44003,Kent,Coventry and central RI,Rhode Island,41.6742388,-71.5544142,WCVY,91.5,FM,@wcvy915,,440030206031056
242,44007,Providence,North Providence,Rhode Island,41.8535518,-71.46766389999998,WRNI,1290.0,AM,@ripr,,440070120004000
246,44009,Washington,"Narragansett and southern RI, Block Island, Aquidneck Island, and parts of the East Bay",Rhode Island,41.37916679999999,-71.5104708,WRNI,102.7,FM,@wrni,,440090515041014
243,44009,Washington,Westerly,Rhode Island,41.3775987,-71.82728709999998,WXNI,1230.0,AM,@ripr,,440090508014010
362,45003,Aiken,Aiken,South Carolina,33.56041679999999,-81.71955329999999,WLJK,89.1,FM,@SCPublicRadio,,450030213001101
363,45013,Beaufort,Beaufort,South Carolina,32.431581300000005,-80.6698286,WJWJ,89.9,FM,@SCPublicRadio,,450130006002072
364,45019,Charleston,Charleston,South Carolina,32.776474900000004,-79.93105120000001,WSCI,89.3,FM,@SCPublicRadio,,450190002001027
367,45045,Greenville,Greenville,South Carolina,34.85261759999999,-82.3940104,WEPR,90.1,FM,@SCPublicRadio,,450450002001000
366,45051,Horry,Conway,South Carolina,33.836003399999996,-79.0478143,WHMC,90.1,FM,@SCPublicRadio,,450510702002066
368,45075,Orangeburg,Orangeburg,South Carolina,33.4918203,-80.8556476,WSSB,90.3,FM,@SCPublicRadio,,450750113001009
365,45079,Richland,Columbia,South Carolina,34.0007104,-81.0348144,WLTR,91.3,FM,@SCPublicRadio,,450790031002042
247,45085,Sumter,Sumter,South Carolina,33.9204354,-80.3414693,WRJA,88.1,FM,@scetv,,450850013002014
369,45091,York,Rock Hill,South Carolina,34.9248667,-81.02507840000001,WNSC,88.9,FM,@SCPublicRadio,,450910605012047
251,46027,Clay,Vermillion,South Dakota,42.7794417,-96.9292104,KUSD,89.7,FM,@SoDakPB,,460279659001032
250,46099,Minnehaha,Sioux Falls,South Dakota,43.5445959,-96.7311034,KCSD,90.9,FM,@SoDakPB,,460990007002008
252,46099,Minnehaha,Sioux Falls,South Dakota,43.5445959,-96.7311034,KRSD,88.1,FM,@mpr,,460990007002008
249,46103,Pennington,Rapid City,South Dakota,44.0805434,-103.2310149,KBHE,89.3,FM,@SoDakPB,,461030102002024
248,46129,Walworth,Lowry,South Dakota,45.3160993,-99.9826202,KQSD,91.9,FM,@SoDakPB,,461299651002531
390,47037,Davidson,Nashville,Tennessee,36.1626638,-86.78160159999999,WPLN,90.3,FM,@WPLN,,470370195003037
389,47037,Davidson,Madison,Tennessee,36.25620019999999,-86.7143516,WPLN,1430.0,AM,@WPLN,,470370107014003
256,47037,Davidson,Nashville,Tennessee,36.1626638,-86.78160159999999,WFCL,91.1,FM,@WPLN,,470370195003037
255,47065,Hamilton,Collegedale,Tennessee,35.053130100000004,-85.0502276,WSMC,90.5,FM,@wsmcfm,,470650112031000
398,47065,Hamilton,Chattanooga,Tennessee,35.0456297,-85.3096801,WUTC,88.1,FM,@WUTC_FM,,470650031001087
397,47093,Knox,Knoxville,Tennessee,35.96063839999999,-83.9207392,WUOT,91.9,FM,@WUOTFM,,470930001001084
254,47113,Madison,Jackson,Tennessee,35.6145169,-88.81394689999998,WKNP,90.1,FM,@wknofm,,471130008002063
253,47141,Putnam,Cookeville,Tennessee,36.162839,-85.5016423,WHRS,91.7,FM,@WPLN,,471410005001064
384,47149,Rutherford,Murfreesboro,Tennessee,35.8456213,-86.39027,WMOT,89.5,FM,@WMOT,,471490416003057
380,47157,Shelby,Memphis,Tennessee,35.1495343,-90.0489801,WKNO,91.1,FM,@WKNOFM,,471570042001018
375,47179,Washington,Johnson City,Tennessee,36.3134397,-82.35347270000001,WETS,89.5,FM,@WETSFM,,471790608001028
327,48005,Angelina,Lufkin,Texas,31.338240600000002,-94.729097,KLDN,88.9,FM,@881TheOne,,480050007002012
268,48029,Bexar,San Antonio,Texas,29.4241219,-98.4936282,KPAC,88.3,FM,@tprclassical,,480291101002041
340,48041,Brazos,College Station,Texas,30.627977,-96.3344068,KEOS,89.1,FM,@KEOSRADIO,,480410013034019
335,48041,Brazos,College Station,Texas,30.627977,-96.3344068,KAMU,90.9,FM,@KAMUTVFM,,480410013034019
359,48061,Cameron,Harlingen,Texas,26.190630600000002,-97.6961026,KMBH,88.9,FM,@PublicRadio88FM,,480610109001066
261,48061,Cameron,Harlingen,Texas,26.190630600000002,-97.6961026,KJJF,88.9,FM,@RGVpublicradio,,480610109001066
341,48113,Dallas,Dallas,Texas,32.7766642,-96.7969879,KERA,90.1,FM,@keranews,(@keratx),481130204003064
342,48113,Dallas,Dallas,Texas,32.7766642,-96.7969879,KERA,90.1,FM,@keratx,,481130204003064
347,48121,Denton,Denton,Texas,33.2148412,-97.1330683,KNTU,88.1,FM,@KNTU881,,481210211001009
266,48135,Ector,Odessa,Texas,31.8456816,-102.3676431,KXWT,91.3,FM,@kxwt,,481350031001071
350,48135,Ector,Odessa,Texas,31.8456816,-102.3676431,KOCV,91.3,FM,@KPVU913FM,,481350031001071
352,48141,El Paso,El Paso,Texas,31.7618778,-106.48502169999999,KTEP,88.5,FM,@ktep885fm,,481410021001031
272,48143,Erath,Stephenville,Texas,32.2206958,-98.2022633,KTRL,90.5,FM,@ktrlradio,,481439505005050
269,48181,Grayson,Sherman,Texas,33.635661799999994,-96.60888050000001,KERA,99.3,FM,@keratx,,481810020003092
271,48195,Hansford,Spearman,Texas,36.1983665,-101.1923795,KTOT,89.5,FM,@hppr,,481959503001231
262,48201,Harris,Houston,Texas,29.7604267,-95.36980279999999,KTSU,90.9,FM,@officialktsu909,,482011000003087
333,48201,Harris,Houston,Texas,29.7604267,-95.36980279999999,KUHF,88.7,FM,@HoustonPubMedia,@HoustonPubMedia,482011000003087
260,48231,Hunt,Commerce,Texas,33.247056699999995,-95.8999656,KETR,88.9,FM,@ketrradio,,482319606003027
330,48245,Jefferson,Beaumont,Texas,30.080174,-94.12655620000001,KVLU,91.3,FM,@913KVLU,,482450012001048
257,48265,Kerr,Ingram,Texas,30.077430699999997,-99.2403213,KTXI,90.1,FM,@tprnews,,482659603024060
263,48299,Llano,Llano,Texas,30.75934519999999,-98.6750379,KVHL,91.7,FM,@tprnews,,482999702002011
264,48303,Lubbock,Lubbock,Texas,33.5778631,-101.85516650000001,KTTZ,89.1,FM,@kttz,,483030007001287
405,48355,Nueces,Corpus Christi,Texas,27.800582799999997,-97.396381,KEDT,90.3,FM,@YourKEDT,,483550064002092
259,48375,Potter,Amarillo,Texas,35.2219971,-101.8312969,KJJP,105.7,FM,@hppr,,483750122001004
265,48377,Presidio,Marfa,Texas,30.3094622,-104.020623,KRTS,93.5,FM,@marfaradio,,483779501003029
270,48415,Scurry,Snyder,Texas,32.717886199999995,-100.9176184,KTPR,89.9,FM,@tprnews,,484159501003112
273,48423,Smith,Tyler,Texas,32.351260100000005,-95.3010624,KERA,100.1,FM,@keratx,,484230005002071
258,48441,Taylor,Abilene,Texas,32.4487364,-99.73314390000002,KACU,89.5,FM,@kacu895,,484410117002004
334,48441,Taylor,Abilene,Texas,32.4487364,-99.73314390000002,KACU,89.7,FM,@KACU895,,484410117002004
267,48451,Tom Green,San Angelo,Texas,31.4637723,-100.4370375,KNCH,90.1,FM,@kttz,,484510018001036
355,48453,Travis,Austin,Texas,30.267153000000004,-97.7430608,KUT,90.5,FM,@KUT,,484530011001092
357,48469,Victoria,Victoria,Texas,28.805267399999998,-97.00359820000001,KVRT,90.7,FM,@KWBU,,484690001001001
356,48473,Waller,Prairie View,Texas,30.093273699999997,-95.98773390000001,KPVU,91.3,FM,@KUTX,,484736804001002
275,48485,Wichita,Wichita Falls,Texas,33.913708500000006,-98.49338730000001,KERA,88.3,FM,@keratx,,484850101001002
274,48485,Wichita,Wichita Falls,Texas,33.913708500000006,-98.49338730000001,KMCU,88.7,FM,@kccuradio,,484850101001002
338,49005,Cache,Logan,Utah,41.7369803,-111.83383590000001,KUSU,91.5,FM,@KCPW,,490050008003009
276,49005,Cache,Logan,Utah,41.7369803,-111.83383590000001,KUSR,89.5,FM,@utahpublicradio,,490050008003009
278,49007,Carbon,Price,Utah,39.5994095,-110.8107148,KCEU,89.7,FM,@TTBook,,490070003003015
351,49035,Salt Lake,Salt Lake City,Utah,40.760779299999996,-111.89104740000002,KUER,90.1,FM,@KRCLradio,,490351140001017
353,49035,Salt Lake,Salt Lake City,Utah,40.760779299999996,-111.89104740000002,KPCW,91.9,FM,@KUER_FM,,490351140001017
339,49035,Salt Lake,Salt Lake City,Utah,40.760779299999996,-111.89104740000002,KCPW,88.3,FM,@KCPWRadio,,490351140001017
279,49041,Sevier,Richfield,Utah,38.772467299999995,-112.0840943,KUSL,89.3,FM,@utahpublicradio,,490419754001057
277,49043,Summit,Park City,Utah,40.6460622,-111.49797290000001,KPCW,91.7,FM,@kpcwtwitter,,490439644021033
280,49053,Washington,St. George,Utah,37.0965278,-113.5684164,KSGU,90.3,FM,@stgeorgechamber,,490532713001008
281,50001,Addison,Bristol,Vermont,44.1333912,-73.07900759999998,WXLQ,90.5,FM,@ncpr,,500019605002016
396,50003,Bennington,Bennington,Vermont,42.878134499999994,-73.1967741,WBTN,94.3,FM,@WRUVFM,,500039712006015
282,50007,Chittenden,Colchester,Vermont,44.5439375,-73.1479068,WVTX,88.7,FM,@vprnet,,500070022001057
283,50027,Windsor,Norwich,Vermont,43.7153482,-72.307869,WNCH,88.1,FM,@vprnet,,500279650001066
284,51017,Bath,Hot Springs,Virginia,37.99939929999999,-79.831587,WCHG,107.1,FM,@mtnradio,,510179201004109
285,51091,Highland,Monterey,Virginia,38.4123429,-79.5806036,WVLS,89.7,FM,@mtnradio,,510919701002131
383,51121,Montgomery,Christiansburg,Virginia,37.1298517,-80.40893890000001,WWVT,1260.0,AM,@WMLUradio,,511210211004040
385,51147,Prince Edward,Farmville,Virginia,37.302096500000005,-78.3919401,WMLU,91.3,FM,@WMRAPublicRadio,,511479301001005
376,51173,Smyth,Marion,Virginia,36.834838299999994,-81.5148368,WVTR,91.9,FM,@WHRO,,511730305001071
377,51710,Norfolk City,Norfolk,Virginia,36.8507689,-76.28587259999998,WHRO,90.3,FM,@whrvfm,,517100049001075
332,51710,Norfolk City,Norfolk,Virginia,36.8507689,-76.28587259999998,WHRV,89.5,FM,@hot91,,517100049001075
373,51710,Norfolk City,Norfolk,Virginia,36.8507689,-76.28587259999998,WNSB,91.1,FM,@wcve,,517100049001075
399,51760,Richmond City,Richmond,Virginia,37.540724600000004,-77.4360481,WCVE,88.9,FM,@WVFTRADIOIQ,,517600305001015
370,51770,Roanoke City,Roanoke,Virginia,37.270970399999996,-79.9414266,WVTF,89.1,FM,@Uva_Wise,,517700011001053
343,53005,Benton,Richland,Washington,46.28042000000001,-119.27519960000001,KFAE,89.1,FM,@kexp,,530050105002000
354,53033,King,Seattle,Washington,47.6062095,-122.33207079999998,KEXP,90.3,FM,@KUOW,,530330081002024
360,53033,King,Bellevue,Washington,47.6101497,-122.2015159,KBCS,91.3,FM,@radio905,,530330238041008
287,53041,Lewis,Chehalis,Washington,46.662047799999996,-122.96401750000001,KSWS,88.9,FM,@nwptv,,530419708004039
288,53053,Pierce,Tacoma,Washington,47.252876799999996,-122.4442906,KNKX,88.5,FM,@knkxfm,,530530616011036
349,53063,Spokane,Spokane,Washington,47.6587802,-117.42604650000001,KSFC,91.9,FM,@KPLUpr,,530630035001015
289,53067,Thurston,Tumwater,Washington,47.007318700000006,-122.90930630000001,KUOW,1340.0,AM,@kuow,,530670109103052
286,53071,Walla Walla,Walla Walla,Washington,46.0645809,-118.34302079999999,KWWS,89.7,FM,@nwptv,,530719206002017
336,53073,Whatcom,Bellingham,Washington,48.7519112,-122.4786854,KZAZ,91.7,FM,@KCBS,,530730006001013
290,54003,Berkeley,Martinsburg,West Virginia,39.4562099,-77.96388689999998,WVEP,88.9,FM,@wvpublic,,540039715004001
294,54039,Kanawha,Charleston,West Virginia,38.3498195,-81.6326234,WVPB,88.5,FM,@wvpublic,,540390009001127
293,54039,Kanawha,Charleston,West Virginia,38.3498195,-81.6326234,WVPN,88.5,FM,@wvpublic,,540390009001127
291,54061,Monongalia,Morgantown,West Virginia,39.629526,-79.95589679999998,WVPM,90.9,FM,@wvpublic,,540610107001013
295,54075,Pocahontas,Frost,West Virginia,38.270836200000005,-79.87798339999998,WVMR,1370.0,AM,@mtnradio,,540759601011264
292,54081,Raleigh,Beckley,West Virginia,37.778170200000005,-81.18815570000001,WVPB,91.7,FM,@wvpublic,,540810002002025
299,55009,Brown,Green Bay,Wisconsin,44.51331879999999,-88.0132958,WHID,88.1,FM,@wpr,,550090010001025
300,55009,Brown,Green Bay,Wisconsin,44.51331879999999,-88.0132958,WPNE,89.3,FM,@wispublictv,,550090010001025
306,55025,Dane,Madison,Wisconsin,43.07305170000001,-89.4012302,WSHS,91.7,FM,@wpr,,550250011011000
304,55025,Dane,Madison,Wisconsin,43.07305170000001,-89.4012302,WERN,88.7,FM,@wpr,,550250011011000
305,55025,Dane,Madison,Wisconsin,43.07305170000001,-89.4012302,WHA,970.0,AM,@wpr,,550250011011000
316,55029,Door,Sister Bay,Wisconsin,45.1872112,-87.12094499999998,WHND,89.7,FM,@wpr,,550291003002050
315,55029,Door,Sister Bay,Wisconsin,45.1872112,-87.12094499999998,WHDI,91.1,FM,@wpr,,550291003002050
296,55031,Douglas,Brule,Wisconsin,46.563093200000004,-91.58631120000001,WHSA,89.9,FM,@wpr,,550310301005101
317,55031,Douglas,Superior,Wisconsin,46.7207737,-92.1040796,KUWS,91.3,FM,@wpr,,550310211002025
308,55033,Dunn,Menomonie,Wisconsin,44.875518299999996,-91.9193422,WHWC,88.3,FM,@wpr,,550339708004019
309,55033,Dunn,Menomonie,Wisconsin,44.875518299999996,-91.9193422,WVSS,90.7,FM,@wpr,,550339708004019
298,55035,Eau Claire,Eau Claire,Wisconsin,44.811349,-91.4984941,WUEC,89.7,FM,@wpr,,550350011011040
302,55049,Iowa,Highland,Wisconsin,43.0466579,-90.3798465,WHHI,91.3,FM,@wpr,,550499502003032
303,55063,La Crosse,La Crosse,Wisconsin,43.8137751,-91.2519017,WLSU,88.9,FM,@wpr,,550630003001056
319,55073,Marathon,Wausau,Wisconsin,44.9591352,-89.6301221,WLBL,91.9,FM,@wpr,,550730001003014
318,55073,Marathon,Wausau,Wisconsin,44.9591352,-89.6301221,WHRM,90.9,FM,@wpr,,550730001003014
310,55079,Milwaukee,Milwaukee,Wisconsin,43.0389025,-87.9064736,WUWM,89.7,FM,@wuwmradio,,550790144002012
320,55079,Milwaukee,Milwaukee,Wisconsin,43.0389025,-87.9064736,WYMS,88.9,FM,@RadioMilwaukee,,550790144002012
313,55085,Oneida,Rhinelander,Wisconsin,45.6366228,-89.4120753,WXPR,91.7,FM,@wxpr,,550859714003021
314,55093,Pierce,River Falls,Wisconsin,44.8613563,-92.6238082,WRFW,88.7,FM,@wrfwfm,,550939603002004
312,55099,Price,Park Falls,Wisconsin,45.9343981,-90.4415527,WHBM,90.3,FM,@wpr,,550999702001047
301,55113,Sawyer,Hayward,Wisconsin,46.0130065,-91.4846208,WOJB,88.9,FM,@wojb,,551131003002049
307,55117,Sheboygan,Sheboygan,Wisconsin,43.750828399999996,-87.71453000000001,WSHS,91.7,FM,@wpr,,551170114001042
297,55133,Waukesha,Delafield,Wisconsin,43.060842,-88.4037079,WHAD,90.7,FM,@wpr,,551332037041038
311,55139,Winnebago,Oshkosh,Wisconsin,44.024706200000004,-88.5426136,WRST,90.3,FM,@wrstfm,,551390005004009
326,56001,Albany,Laramie,Wyoming,41.311366899999996,-105.5911007,KUWR,91.9,FM,@WYpublicradio,,560019634001020
324,56005,Campbell,Gillette,Wyoming,44.2910915,-105.5022205,KUWG,90.9,FM,@WYpublicradio,,560050004002039
322,56019,Johnson,Buffalo,Wyoming,44.34830720000001,-106.6989375,KBUW,90.5,FM,@WYpublicradio,,560199552004049
321,56023,Lincoln,Afton,Wyoming,42.7249282,-110.9318687,KUWA,91.3,FM,@WYpublicradio,,560239781003036
323,56025,Natrona,Casper,Wyoming,42.8500769,-106.32517490000001,KUWC,91.3,FM,@WYpublicradio,,560250002003092
325,56039,Teton,Jackson,Wyoming,43.4799291,-110.76242820000002,KUWJ,90.3,FM,@WYpublicradio,,560399677012038
502,66010,Guam,Agana,Guam,13.476282399999999,144.75022280000002,KPRG,89.3,FM,@kprgfm,,660109534001021
361,72127,San Juan,Rio Piedras,Puerto Rico,18.383130800000004,-66.0656843,WRTU,89.7,FM,@radioupr,,721270096012033
386,72127,San Juan,San Juan,Puerto Rico,18.465539399999997,-66.1057355,WOSO,1030.0,AM,@WOSO1030AM,,721270006002000
382,78030,St. Thomas,St. Thomas,US Virgin Islands,18.3380965,-64.8940946,WVGN,107.3,FM,@WKUF943,,780309602003015
